{
"type": "FeatureCollection",
"name": "perimeter",
"crs": { "type": "name", "properties": { "name": "urn:ogc:def:crs:OGC:1.3:CRS84" } },
"features": [
{ "type": "Feature", "properties": { "OBJECTID": 1, "LSCAP_ID": 21, "ZONE10": 8, "ZONE17": 13, "Z17CODE": "J", "LANDSCAPE": "Combretum / Acacia nigrescens Rugged Veld", "LABEL": "21: Combretum / Acacia nigrescens Rugged Veld", "ALLIANCES_": 13, "ALLIANCES": "13: Basaltic or gabbroic plains with Acacia nigriscens bush savanna or Colophospermum mopane bush or shrub savanna", "AREA_HA": 23896.594, "PERIMETER_": 96.407, "PERIMETE_1": 96.432 }, "geometry": { "type": "MultiPolygon", "coordinates": [ [ [ [ 31.638967284033122, -24.274078471754006 ], [ 31.637034020908569, -24.267848327826968 ], [ 31.63478247366103, -24.261001245675704 ], [ 31.631529416606007, -24.253883247662031 ], [ 31.62825087724179, -24.2482549511417 ], [ 31.626453908079434, -24.242251670516197 ], [ 31.626772205449921, -24.240123399394658 ], [ 31.626673034380453, -24.238352570752415 ], [ 31.627743626828174, -24.236781930064257 ], [ 31.628344999254079, -24.235803050934759 ], [ 31.62821880771283, -24.232876101816299 ], [ 31.627505922692489, -24.228643501415267 ], [ 31.625054234908784, -24.221279753840523 ], [ 31.623487238722944, -24.21224433444851 ], [ 31.622063164005084, -24.206415946242849 ], [ 31.614863452607874, -24.193897880601 ], [ 31.613458673329752, -24.191799107458461 ], [ 31.612342058867984, -24.188547069017933 ], [ 31.610410494585011, -24.182379840967428 ], [ 31.609092554225143, -24.175920189758568 ], [ 31.608982390698412, -24.170645488184103 ], [ 31.607910788184011, -24.15327944937 ], [ 31.606681447239644, -24.139587283536052 ], [ 31.60267566533873, -24.131504643062168 ], [ 31.599841168794136, -24.128850849923126 ], [ 31.595653009716731, -24.126726383610688 ], [ 31.593243784807061, -24.123895779447327 ], [ 31.592807798117466, -24.120577636132364 ], [ 31.593853379358908, -24.117634350393885 ], [ 31.594545030092352, -24.115563740680415 ], [ 31.59451889415411, -24.114353435996797 ], [ 31.592028959642303, -24.113526807699834 ], [ 31.586366631670433, -24.111316269982055 ], [ 31.578274086403145, -24.110925113449859 ], [ 31.569962394426508, -24.111669292585166 ], [ 31.556746552028141, -24.11370323675294 ], [ 31.550669701154931, -24.115162778696025 ], [ 31.541865331955712, -24.11333616123439 ], [ 31.535065293963235, -24.112629959610139 ], [ 31.529286059086271, -24.110416221665506 ], [ 31.519123676185032, -24.11124815692158 ], [ 31.511516014664892, -24.113196967342201 ], [ 31.508207100328089, -24.114329572605659 ], [ 31.50259700100904, -24.114527523962042 ], [ 31.497837209562348, -24.114363399785947 ], [ 31.494151767657833, -24.112349529514727 ], [ 31.49174511011293, -24.112036825344962 ], [ 31.489875800810012, -24.111205653395185 ], [ 31.488085714056314, -24.111169887702019 ], [ 31.484155943077294, -24.111546326796695 ], [ 31.480806634213444, -24.111919407355973 ], [ 31.480968544912049, -24.104868563401478 ], [ 31.425344791245472, -24.109163531258027 ], [ 31.418898551675522, -24.109376879129051 ], [ 31.414517603776769, -24.109638491061446 ], [ 31.412864319982209, -24.109684533035292 ], [ 31.403776447351991, -24.110312234055367 ], [ 31.401082077149937, -24.110220849174581 ], [ 31.399073335127699, -24.110371378006381 ], [ 31.364691626674031, -24.109555722402316 ], [ 31.360480404060382, -24.109618941972133 ], [ 31.357452162416866, -24.109487086562936 ], [ 31.338622403683825, -24.108804903408821 ], [ 31.329119187210921, -24.108836705379307 ], [ 31.326667477486563, -24.109008521733713 ], [ 31.324238961747646, -24.108909665786552 ], [ 31.312018273364675, -24.109127278653823 ], [ 31.308879115163087, -24.109209944912603 ], [ 31.30658714082816, -24.109202615026369 ], [ 31.303440528920241, -24.109104496475918 ], [ 31.29893265880099, -24.109289135006975 ], [ 31.298214172304267, -24.109317250928672 ], [ 31.29715215153934, -24.109287357678813 ], [ 31.293451406365534, -24.109435680865786 ], [ 31.27221958729487, -24.108212821010849 ], [ 31.266013992846762, -24.10809736542727 ], [ 31.264360659015249, -24.108150825894135 ], [ 31.258447530598961, -24.107505653099921 ], [ 31.25597255993614, -24.107215568283074 ], [ 31.255089612317104, -24.105589232212356 ], [ 31.249912574418758, -24.094947628993832 ], [ 31.242197845245947, -24.077892977835393 ], [ 31.210588393471483, -24.059558145894641 ], [ 31.210354675781236, -24.022508291684815 ], [ 31.210211954982451, -24.000863375231585 ], [ 31.210224030227284, -24.000700988492447 ], [ 31.210672725142704, -23.998105782350649 ], [ 31.209792267112665, -23.996388961012673 ], [ 31.20846808939358, -23.995488618889702 ], [ 31.183196481260595, -23.978929547264581 ], [ 31.182015489479973, -23.978355740823108 ], [ 31.165462608787657, -23.953003292708246 ], [ 31.158704807929219, -23.862097222101063 ], [ 31.153880524612422, -23.797181920266802 ], [ 31.150507226679807, -23.75054100992735 ], [ 31.149305752762423, -23.732829027157578 ], [ 31.143584757521282, -23.648443716660196 ], [ 31.143036345184864, -23.647714790573719 ], [ 31.142256690362373, -23.646703178315597 ], [ 31.141099059702466, -23.64538905839548 ], [ 31.139819769533268, -23.644362413524753 ], [ 31.138565208074056, -23.642974877876586 ], [ 31.137348593161136, -23.641678083577677 ], [ 31.136098814231655, -23.639956498131486 ], [ 31.134640977600863, -23.638394930960541 ], [ 31.13353921687559, -23.637298139511032 ], [ 31.132746565086755, -23.636521093937517 ], [ 31.131588860486261, -23.635224968755754 ], [ 31.130384673152154, -23.634442953068408 ], [ 31.128503557962709, -23.633020700910631 ], [ 31.126773062990132, -23.6313474233379 ], [ 31.125895511465671, -23.630343585084642 ], [ 31.124382067714272, -23.628573582758186 ], [ 31.122930817947061, -23.627255790665007 ], [ 31.121701739853879, -23.626166412004032 ], [ 31.1211804857485, -23.62560930519312 ], [ 31.120649431507587, -23.624365843163766 ], [ 31.119823927075032, -23.623154928720126 ], [ 31.117668114079795, -23.62040190593456 ], [ 31.116875409584349, -23.618956611488027 ], [ 31.116077701013904, -23.617177165145598 ], [ 31.115295087209272, -23.615713927704395 ], [ 31.114906305413225, -23.614806265187866 ], [ 31.114481181286287, -23.613699513560753 ], [ 31.114023311957496, -23.612827127318027 ], [ 31.113399670441041, -23.611898548311199 ], [ 31.112910741547882, -23.61114316381618 ], [ 31.112585912624784, -23.610561332348354 ], [ 31.112447490163664, -23.60996370885459 ], [ 31.112068151562148, -23.609083243541427 ], [ 31.110801046243221, -23.607930121218484 ], [ 31.109437419067415, -23.606676490594229 ], [ 31.107905847576689, -23.605520125140309 ], [ 31.106627849416618, -23.604448103515683 ], [ 31.105009328000627, -23.603209386797666 ], [ 31.104016123345872, -23.602095675285394 ], [ 31.102969353183148, -23.600620128807638 ], [ 31.102137603374853, -23.599183322472612 ], [ 31.101668375807417, -23.598428148057373 ], [ 31.100792483486376, -23.596656709349755 ], [ 31.100257040965857, -23.595738192777642 ], [ 31.099917093444951, -23.594171952920206 ], [ 31.099714813434318, -23.592571279834527 ], [ 31.099618207561878, -23.591116369595241 ], [ 31.099703035430778, -23.58998873673033 ], [ 31.099991527975728, -23.589685268200316 ], [ 31.100438262490655, -23.588598179399558 ], [ 31.100916372586052, -23.588053234961823 ], [ 31.101341083928634, -23.587814634795425 ], [ 31.101983110799285, -23.587452278128922 ], [ 31.103288042970945, -23.586637517361304 ], [ 31.105234779838995, -23.586155634018478 ], [ 31.106729237322394, -23.585785594975711 ], [ 31.108754443539617, -23.585295593205554 ], [ 31.110844454367733, -23.585068205411638 ], [ 31.113633149732209, -23.584623540777066 ], [ 31.116042136877464, -23.584011690007426 ], [ 31.117599568600163, -23.583344335627629 ], [ 31.11960846173713, -23.582619224632385 ], [ 31.120608056054365, -23.581908966357318 ], [ 31.121869249040675, -23.580714273527835 ], [ 31.122407940965495, -23.580034546815362 ], [ 31.122741576513011, -23.579307192727569 ], [ 31.122995015283678, -23.578019041990206 ], [ 31.123362390442018, -23.576985091770769 ], [ 31.123593275942099, -23.575904344509496 ], [ 31.123820820672144, -23.57505832244453 ], [ 31.124043827904291, -23.573842036699137 ], [ 31.124096604959103, -23.572885549853432 ], [ 31.12415694916098, -23.571396415217826 ], [ 31.124263568282156, -23.570097457827107 ], [ 31.124004466834897, -23.56902885183159 ], [ 31.123772826901437, -23.568096019194442 ], [ 31.12330074486901, -23.567539520845759 ], [ 31.123132751550735, -23.566264335970963 ], [ 31.122849713724626, -23.565502441562181 ], [ 31.122816569814937, -23.565077655856868 ], [ 31.12255945195831, -23.564559869957403 ], [ 31.1218777016737, -23.563594508769981 ], [ 31.120685278473324, -23.562722295391861 ], [ 31.119821354964067, -23.562170079011082 ], [ 31.119039281080774, -23.562061292524653 ], [ 31.117638139597602, -23.561403238476913 ], [ 31.115787414323677, -23.560676517077976 ], [ 31.114765800506881, -23.560194598250558 ], [ 31.113410187851152, -23.559780855310219 ], [ 31.112265405498697, -23.559008483637662 ], [ 31.110520040072153, -23.55776830385178 ], [ 31.109651826581384, -23.556836745908935 ], [ 31.108951270527108, -23.555825958206015 ], [ 31.108378550790849, -23.554780605519465 ], [ 31.108182463552058, -23.554110041322843 ], [ 31.108459280135985, -23.553246583499206 ], [ 31.109211573551729, -23.552009671375355 ], [ 31.109560801684648, -23.550876208029546 ], [ 31.109631718929784, -23.549342064581747 ], [ 31.1094395275362, -23.547714427694849 ], [ 31.109308008468229, -23.546638324487006 ], [ 31.109383679019789, -23.545456386747304 ], [ 31.109647981635934, -23.544096152654852 ], [ 31.110344808203859, -23.542623790432202 ], [ 31.111445282507841, -23.541002824893305 ], [ 31.112405807205967, -23.539578799825307 ], [ 31.112888316344968, -23.538708796134351 ], [ 31.113626821433993, -23.537742570977795 ], [ 31.114304248013198, -23.536938131809325 ], [ 31.114772041484855, -23.535724822303983 ], [ 31.115552496327233, -23.533874205151932 ], [ 31.116254744895883, -23.532699847193211 ], [ 31.116883942646222, -23.531840633249452 ], [ 31.117450374914174, -23.530574329645354 ], [ 31.117987293649861, -23.529316695746726 ], [ 31.11799304343689, -23.528224196174744 ], [ 31.11803243415692, -23.527520371764059 ], [ 31.117953561894179, -23.526869293943815 ], [ 31.117753187723025, -23.525810419014611 ], [ 31.117323901973567, -23.525010630126271 ], [ 31.116719543624868, -23.524127456208394 ], [ 31.115126846973048, -23.523196195183552 ], [ 31.113054832805918, -23.52360450149996 ], [ 31.110592338936062, -23.523926773914095 ], [ 31.10820541224874, -23.525812022904596 ], [ 31.106288643444433, -23.52768489492604 ], [ 31.103791730458884, -23.529035992588135 ], [ 31.101883975555182, -23.529590615785562 ], [ 31.100095255690704, -23.530038315072304 ], [ 31.097539103960592, -23.531415671097744 ], [ 31.094934386897862, -23.53140185806803 ], [ 31.09293737709822, -23.531350304485027 ], [ 31.090847019910644, -23.530981550984258 ], [ 31.088735129766977, -23.530070742011834 ], [ 31.086862561037844, -23.529542082720404 ], [ 31.08542368526906, -23.528820092370228 ], [ 31.08439355905486, -23.52827468031062 ], [ 31.08354255410369, -23.527532821827315 ], [ 31.082945203154296, -23.526857289927104 ], [ 31.082368486480561, -23.526109775311021 ], [ 31.081959002679735, -23.525310143949724 ], [ 31.0817347852018, -23.523889768900464 ], [ 31.081755070841766, -23.522490466185708 ], [ 31.081955267871244, -23.52016335481396 ], [ 31.082169148321515, -23.518242732867446 ], [ 31.082274303715653, -23.515715801833295 ], [ 31.08184142735378, -23.512477949422593 ], [ 31.081588376739539, -23.511021100520729 ], [ 31.080778245570457, -23.509494179495199 ], [ 31.079686305461987, -23.50849651305305 ], [ 31.077911881161121, -23.507300799395644 ], [ 31.075418023363632, -23.50643026309498 ], [ 31.072740046528999, -23.505430998711745 ], [ 31.070607669510956, -23.504619038331629 ], [ 31.069231178811986, -23.503671954405565 ], [ 31.068110799983973, -23.502619684541191 ], [ 31.067434929121013, -23.501970215244267 ], [ 31.067022176771609, -23.501405273442472 ], [ 31.066967001062814, -23.501160796370787 ], [ 31.066865648416002, -23.500726129930769 ], [ 31.066706749805686, -23.500209485021806 ], [ 31.06615551452515, -23.49974214490787 ], [ 31.065687635381249, -23.499600894500471 ], [ 31.065239466488695, -23.499450858255599 ], [ 31.064957837419556, -23.499293860691449 ], [ 31.064569985016309, -23.499036219976993 ], [ 31.064231077137631, -23.498779186703807 ], [ 31.063734893660552, -23.498565344245794 ], [ 31.063069249388263, -23.497888897075207 ], [ 31.059557094478787, -23.489691702433642 ], [ 31.053605220847178, -23.473671690465995 ], [ 31.029801777816257, -23.409535732262523 ], [ 31.027656634401353, -23.403766029582517 ], [ 31.022303757176925, -23.389377915735437 ], [ 30.999764851507756, -23.328802892259443 ], [ 30.970460340776945, -23.250910241591122 ], [ 30.947756734506896, -23.189812664067379 ], [ 30.937100997641824, -23.161132072902372 ], [ 30.928239892632053, -23.137278059310205 ], [ 30.928174338332372, -23.137096613925518 ], [ 30.922477920417897, -23.122809719523946 ], [ 30.89886883132662, -23.066606715188293 ], [ 30.900507145035583, -23.061644410648963 ], [ 30.901971924964581, -23.057167349698073 ], [ 30.920529351030314, -23.000672788379408 ], [ 30.926238276161566, -22.982589711023682 ], [ 30.943016400429233, -22.929444584427987 ], [ 30.976629968715336, -22.822875566023374 ], [ 30.980237555345475, -22.811417510005111 ], [ 30.992046224779088, -22.773939684226082 ], [ 30.99953528420453, -22.757843274973414 ], [ 31.002899838082048, -22.750769876604885 ], [ 31.013575251550218, -22.727533630583036 ], [ 30.999585181768584, -22.72699792090452 ], [ 30.973827517907285, -22.725093205836732 ], [ 30.888473093813069, -22.712349324042084 ], [ 30.888321281505906, -22.712094494686379 ], [ 30.888244616055971, -22.710748095641314 ], [ 30.888353210990616, -22.708744993951004 ], [ 30.888497434028331, -22.70759112977591 ], [ 30.889297637705408, -22.706816132356099 ], [ 30.891384754952139, -22.704622420930281 ], [ 30.893899575000809, -22.703093461742611 ], [ 30.896978007722513, -22.70289017577635 ], [ 30.898260091774567, -22.702419437119939 ], [ 30.900347234571456, -22.700848630185114 ], [ 30.901879315626477, -22.699297601314999 ], [ 30.90420153388564, -22.697621466950142 ], [ 30.905786439526619, -22.695791171870066 ], [ 30.906357895161101, -22.69532911643574 ], [ 30.907386792433801, -22.693581819682205 ], [ 30.908500624935769, -22.691366088540459 ], [ 30.907073318589049, -22.689234512401317 ], [ 30.905424863991637, -22.688210663676557 ], [ 30.902886147416314, -22.687500197279121 ], [ 30.899630310759598, -22.685958595563786 ], [ 30.898497996192766, -22.684914365791336 ], [ 30.897712815720773, -22.683441273173273 ], [ 30.898009730147102, -22.681837920939497 ], [ 30.898924348150256, -22.67992664437466 ], [ 30.900798333679617, -22.678271742186144 ], [ 30.903350898306304, -22.67742030333585 ], [ 30.905298897565338, -22.677292304613406 ], [ 30.907016975343218, -22.677567605523162 ], [ 30.908987583612905, -22.67723217755076 ], [ 30.91022528559191, -22.677744966660228 ], [ 30.911752507602532, -22.677773927427182 ], [ 30.913605688485436, -22.677482057884109 ], [ 30.915591374984189, -22.677435690609677 ], [ 30.918844295031622, -22.676593115556187 ], [ 30.920243896557693, -22.676051470196349 ], [ 30.921508996503455, -22.674749578321659 ], [ 30.922967067592587, -22.672908401379743 ], [ 30.923333325025311, -22.671847657437269 ], [ 30.923969357393069, -22.669670736921219 ], [ 30.924031587400048, -22.668768581159608 ], [ 30.923952440794995, -22.666916481428782 ], [ 30.924258050013837, -22.665358317274659 ], [ 30.924538083226786, -22.664206153890522 ], [ 30.925034880554104, -22.662226071607375 ], [ 30.925269927938107, -22.660829522683716 ], [ 30.925693767427436, -22.658523424043231 ], [ 30.927039113302587, -22.655750678875549 ], [ 30.927259750674541, -22.655311080896137 ], [ 30.927381561242822, -22.653678289553032 ], [ 30.928264624016361, -22.651883779787624 ], [ 30.928832646007585, -22.649687886007243 ], [ 30.929386316736263, -22.64779881186606 ], [ 30.929785432853659, -22.645835500505321 ], [ 30.930206541023999, -22.644351043877482 ], [ 30.930086344805524, -22.643283989723475 ], [ 30.930045058165287, -22.641495580482271 ], [ 30.932424689271095, -22.64044273402428 ], [ 30.934110246412221, -22.641566091571214 ], [ 30.934479429068634, -22.641597938987733 ], [ 30.935253594418324, -22.641869775567926 ], [ 30.936113688900821, -22.642901210059399 ], [ 30.937453227053133, -22.644399326774906 ], [ 30.938883677692026, -22.645022721369362 ], [ 30.939463885360826, -22.645255925572869 ], [ 30.941256012604647, -22.643807114739001 ], [ 30.943035192007141, -22.64322496905184 ], [ 30.944924435669034, -22.642436530068448 ], [ 30.94528419389108, -22.641140860436728 ], [ 30.945999046412222, -22.639515639810451 ], [ 30.947754341826364, -22.638571940639448 ], [ 30.948892536706943, -22.638568449906078 ], [ 30.950743051391754, -22.637761380762118 ], [ 30.952928863764161, -22.637301702468758 ], [ 30.953319902788621, -22.637171249160073 ], [ 30.956953774026974, -22.636802235199113 ], [ 30.958390806236441, -22.636323905284335 ], [ 30.959133178096074, -22.635457467889108 ], [ 30.959031542558105, -22.634435806520667 ], [ 30.957551831954522, -22.632538763680994 ], [ 30.955563503484999, -22.630833879954327 ], [ 30.95534225235075, -22.630009347689334 ], [ 30.95520417686518, -22.628165509565125 ], [ 30.955271638508986, -22.626893169116048 ], [ 30.956717646022195, -22.625800935857661 ], [ 30.959448252865595, -22.625321006409099 ], [ 30.962024176666716, -22.624775854761648 ], [ 30.965051552347173, -22.623956464704534 ], [ 30.968024986984602, -22.621510959036417 ], [ 30.96829343286235, -22.621776225512559 ], [ 30.969266667256129, -22.621075192887041 ], [ 30.971000224162122, -22.619598175827999 ], [ 30.971665420868707, -22.618676513023576 ], [ 30.972912757844284, -22.617852503271042 ], [ 30.974997374426852, -22.616307634404826 ], [ 30.976126921009801, -22.615554349059028 ], [ 30.97773774927639, -22.613813834249886 ], [ 30.978810803069223, -22.612265184296334 ], [ 30.981448068517551, -22.611494724993687 ], [ 30.98419370719645, -22.611294467209188 ], [ 30.985745636265907, -22.610916641387711 ], [ 30.986875215523675, -22.610154244081151 ], [ 30.988756807871123, -22.608507301722337 ], [ 30.989513823230421, -22.607947902030567 ], [ 30.989798311114477, -22.607779897237247 ], [ 30.990822040269403, -22.606266656764799 ], [ 30.991573350019362, -22.604759028956142 ], [ 30.99180210741325, -22.604409723327397 ], [ 30.992669947623401, -22.602912576891189 ], [ 30.993607629547309, -22.600621660138405 ], [ 30.994674428142638, -22.598142719067855 ], [ 30.995174411894123, -22.596523568247878 ], [ 30.995435583797541, -22.595948911028401 ], [ 30.995589572043791, -22.594045507305367 ], [ 30.995458810278919, -22.593673645264705 ], [ 30.994999122172214, -22.592512066994246 ], [ 30.994469419366403, -22.591485062898908 ], [ 30.993396387617057, -22.589701779650838 ], [ 30.992928875063996, -22.589081897749097 ], [ 30.992473969096853, -22.588263512792523 ], [ 30.991940633231238, -22.58748929589775 ], [ 30.991363143523984, -22.586407506055377 ], [ 30.989602654492156, -22.584425971754822 ], [ 30.987390679386593, -22.583404969590212 ], [ 30.985712931607242, -22.58242675978935 ], [ 30.982392442472609, -22.581409845598706 ], [ 30.979366695600124, -22.580188885330472 ], [ 30.976483272853343, -22.579213472057635 ], [ 30.973948558310521, -22.578332707271866 ], [ 30.972264574884417, -22.57845593587739 ], [ 30.971988135154003, -22.578741402843328 ], [ 30.971190348991382, -22.578108264647287 ], [ 30.970083921050168, -22.577967867288542 ], [ 30.969693463538679, -22.578071291178208 ], [ 30.968251600071003, -22.578260747077401 ], [ 30.967425597323668, -22.577564025187861 ], [ 30.966485461165934, -22.576694286819457 ], [ 30.965215292109793, -22.575125062418383 ], [ 30.964330293069715, -22.573813547240974 ], [ 30.964069597137001, -22.572365462669147 ], [ 30.96405259888753, -22.570875316687999 ], [ 30.964095728180567, -22.57058690695121 ], [ 30.964066487162384, -22.569268173360921 ], [ 30.964094470912396, -22.567363222074853 ], [ 30.964089086173637, -22.566405985824112 ], [ 30.964558430713204, -22.56556312200172 ], [ 30.964353635987685, -22.563619101416048 ], [ 30.964508991133282, -22.562970916973899 ], [ 30.963365988530114, -22.561358145692072 ], [ 30.961024053178338, -22.559296728135951 ], [ 30.959701638679274, -22.55798867435464 ], [ 30.959118136141822, -22.557340145435923 ], [ 30.958481882372357, -22.555652509081675 ], [ 30.958306637351537, -22.555009162228956 ], [ 30.957699960651585, -22.553294809611216 ], [ 30.957407802562741, -22.552008855664536 ], [ 30.957642110878304, -22.55062123140204 ], [ 30.958033503912599, -22.548468061497914 ], [ 30.958148525170998, -22.547918699400352 ], [ 30.95846282989233, -22.546378580185436 ], [ 30.959907919174082, -22.545286243983877 ], [ 30.961439000939748, -22.54429431224429 ], [ 30.96257157142642, -22.543297316171671 ], [ 30.963658974193059, -22.542064961454518 ], [ 30.965509154931723, -22.539857987633521 ], [ 30.966838287587127, -22.538709934412118 ], [ 30.968128197319192, -22.538247648036748 ], [ 30.969844120386931, -22.536571686438279 ], [ 30.970634610750501, -22.535028510897863 ], [ 30.970939500740677, -22.534120332344983 ], [ 30.970933918471232, -22.533172117519161 ], [ 30.970643377524972, -22.531768811018054 ], [ 30.970039872378749, -22.530497004985168 ], [ 30.969627971790235, -22.529417244021179 ], [ 30.969429533479669, -22.527699050077874 ], [ 30.970750374466768, -22.524446869933705 ], [ 30.971770218389878, -22.522500225519654 ], [ 30.972142432280585, -22.521638039557313 ], [ 30.973246531464227, -22.519909163524456 ], [ 30.975423483097515, -22.517922876560881 ], [ 30.976850662728424, -22.517362902217275 ], [ 30.978424251152443, -22.516759603292687 ], [ 30.980020674389397, -22.515921794632341 ], [ 30.981343811461915, -22.515161812154684 ], [ 30.98391411400144, -22.512846218684668 ], [ 30.986907438309917, -22.510842889192016 ], [ 30.987208454894823, -22.509519237650288 ], [ 30.988131742465175, -22.508176271222126 ], [ 30.989945456720427, -22.505742749831544 ], [ 30.991064721255878, -22.504284818201381 ], [ 30.99128136018464, -22.502743380878268 ], [ 30.991521340247132, -22.502276810874047 ], [ 30.992277468645131, -22.501735405079057 ], [ 30.993056876972464, -22.501600638399065 ], [ 30.993450564733894, -22.501930626189701 ], [ 30.993973773856645, -22.502713729891997 ], [ 30.995472951956184, -22.503210990703835 ], [ 30.997240177998595, -22.503991504356929 ], [ 30.998395559115306, -22.50406907950423 ], [ 30.999383678818063, -22.504289050017647 ], [ 30.999906589877966, -22.503744709865572 ], [ 31.00111211334098, -22.503714527061486 ], [ 31.002869675478621, -22.50381760351139 ], [ 31.004809139607808, -22.504112546933662 ], [ 31.006398938137711, -22.504394108992336 ], [ 31.007750092773016, -22.504374709577203 ], [ 31.008473017093579, -22.504112747679322 ], [ 31.009337403099149, -22.503473265693376 ], [ 31.010243129571951, -22.503339976667775 ], [ 31.011109243377362, -22.503937634112713 ], [ 31.012719303914686, -22.504842464200404 ], [ 31.014243655065155, -22.50630609137124 ], [ 31.014960697811745, -22.507136675404876 ], [ 31.015076109564298, -22.508582921398034 ], [ 31.015442832868278, -22.50944530560168 ], [ 31.015938642722006, -22.510796907821735 ], [ 31.016573726226916, -22.511924471074625 ], [ 31.016761116956168, -22.512414407525117 ], [ 31.016758669006961, -22.512585950172667 ], [ 31.016911626465518, -22.513445698362002 ], [ 31.016744861296811, -22.51491555780779 ], [ 31.016094784150066, -22.516198857972157 ], [ 31.015941154808438, -22.516747803077148 ], [ 31.015552280966581, -22.518115590483905 ], [ 31.015525457206486, -22.519993528126843 ], [ 31.016117961742253, -22.521382443309221 ], [ 31.017004470712582, -22.52260340703311 ], [ 31.01720984051202, -22.522515635968215 ], [ 31.019419913954227, -22.522940175762248 ], [ 31.020798282812667, -22.522388233248616 ], [ 31.023416579152912, -22.522131445984233 ], [ 31.025571606469093, -22.52164317849018 ], [ 31.02712974005162, -22.520750237722293 ], [ 31.027977541858544, -22.519911790387926 ], [ 31.028359255388207, -22.51904053872876 ], [ 31.028492141647231, -22.517895332689253 ], [ 31.028486559778262, -22.516233709654134 ], [ 31.029016215632542, -22.514524459167934 ], [ 31.03005360030156, -22.512649845522859 ], [ 31.031027662805212, -22.511126626733081 ], [ 31.03192230413725, -22.510406118328891 ], [ 31.033152308206539, -22.509337522995676 ], [ 31.034310059498097, -22.508566032215789 ], [ 31.035665863448202, -22.508221369042676 ], [ 31.03679538629396, -22.508758897775444 ], [ 31.038277418406594, -22.509111079346969 ], [ 31.039412856656245, -22.509919569862213 ], [ 31.039739427992359, -22.510194453270621 ], [ 31.040813479493035, -22.510532614827326 ], [ 31.041201366405616, -22.509905217202569 ], [ 31.041612754917974, -22.508989136343374 ], [ 31.042935273791151, -22.508246675105347 ], [ 31.045140398485668, -22.507632312875646 ], [ 31.047862928299654, -22.506852617365915 ], [ 31.051102720160532, -22.505916589721721 ], [ 31.053294540425114, -22.504859465705159 ], [ 31.055442037110936, -22.503494744178067 ], [ 31.056804817346364, -22.501948949377788 ], [ 31.058235972104558, -22.501072208883915 ], [ 31.058338940005498, -22.500658055571815 ], [ 31.058753727856502, -22.500184448398667 ], [ 31.059106165700442, -22.499303724117613 ], [ 31.058253601964079, -22.49841750746916 ], [ 31.05702462758855, -22.498041475054968 ], [ 31.05547778893958, -22.497462929911929 ], [ 31.053804533735516, -22.496196540073864 ], [ 31.052495873286283, -22.494573330382341 ], [ 31.052079351593946, -22.493782658284076 ], [ 31.050741938865603, -22.492827330840143 ], [ 31.049836739976808, -22.491543104575783 ], [ 31.04975084250697, -22.49073836851338 ], [ 31.050080485419844, -22.489405874203293 ], [ 31.050885420246324, -22.488828643723608 ], [ 31.052204930360212, -22.487589387047336 ], [ 31.053423722391596, -22.486601750181727 ], [ 31.054158218199088, -22.486195226520604 ], [ 31.054915927314113, -22.485518069802616 ], [ 31.05517900998764, -22.484771728275742 ], [ 31.054996051835079, -22.483956791179935 ], [ 31.054955548911181, -22.482683026759034 ], [ 31.056160898452969, -22.48126174690039 ], [ 31.057642706870233, -22.481613734016221 ], [ 31.058580345579589, -22.482663520199793 ], [ 31.059655150588039, -22.483633680093575 ], [ 31.06133193819938, -22.483942830852335 ], [ 31.0618923623305, -22.482775626115902 ], [ 31.06180815597531, -22.481844487367209 ], [ 31.06171084017496, -22.481157010376073 ], [ 31.061428394715108, -22.479808091146499 ], [ 31.061534782970419, -22.477750450225404 ], [ 31.061897441419358, -22.476129346977007 ], [ 31.062073783702555, -22.475327765161055 ], [ 31.062550075991631, -22.473220385649277 ], [ 31.063258125807554, -22.4712151215383 ], [ 31.063368253356579, -22.470981654836532 ], [ 31.06428630898381, -22.468545448622571 ], [ 31.06525414687605, -22.467419236864526 ], [ 31.066193013620914, -22.466978979887109 ], [ 31.067299026011092, -22.466396234252073 ], [ 31.068172508141007, -22.465765543041698 ], [ 31.068458985229348, -22.465425819751093 ], [ 31.069880091158506, -22.464539795155176 ], [ 31.070422841202131, -22.462532510544364 ], [ 31.070079797061574, -22.461345423263783 ], [ 31.06965808671022, -22.459525265811937 ], [ 31.069763897918879, -22.458199062737854 ], [ 31.070239208051149, -22.456850188803696 ], [ 31.070045007955503, -22.455439121891619 ], [ 31.066350972851961, -22.419155841219073 ], [ 31.073835462540277, -22.396208538448686 ], [ 31.075518985768404, -22.391017996629799 ], [ 31.082001496963517, -22.371507813725241 ], [ 31.083682992354799, -22.36641644959867 ], [ 31.088553272987717, -22.351754215324831 ], [ 31.089387145071569, -22.348982637417425 ], [ 31.089665924725733, -22.349184599566339 ], [ 31.092289508781391, -22.349007827243739 ], [ 31.094116542569441, -22.348866791382356 ], [ 31.101347125994867, -22.34614320864565 ], [ 31.109089360006127, -22.342892450698923 ], [ 31.117835832121081, -22.34001420046447 ], [ 31.125954355195425, -22.336884362480447 ], [ 31.136338887362246, -22.333409915454059 ], [ 31.148892622569157, -22.331025204262968 ], [ 31.156900288535077, -22.32885877629932 ], [ 31.161775516635728, -22.328679352012934 ], [ 31.169469118202148, -22.330473285985033 ], [ 31.175465602036549, -22.332157453439279 ], [ 31.182657215835132, -22.336762780245238 ], [ 31.187287688386963, -22.339018213317239 ], [ 31.189810283751594, -22.342135012227395 ], [ 31.19380928454359, -22.349720517937399 ], [ 31.19635702712462, -22.354679828725462 ], [ 31.200009775199035, -22.35979589370266 ], [ 31.204032895038416, -22.363308482205507 ], [ 31.20895216062663, -22.366614156749012 ], [ 31.214846326287955, -22.369632427610615 ], [ 31.219364912411685, -22.370124735209913 ], [ 31.229809629964308, -22.368080909207393 ], [ 31.249838421381483, -22.362871045523232 ], [ 31.254037849310105, -22.36325958464219 ], [ 31.255084440119358, -22.363424401117758 ], [ 31.258718462018592, -22.363996378341206 ], [ 31.260607234133385, -22.364368904410281 ], [ 31.261382118359201, -22.364521729419373 ], [ 31.264499748708282, -22.365241561590459 ], [ 31.26712728994006, -22.366335399074206 ], [ 31.268128164651859, -22.367059578551224 ], [ 31.268896039749748, -22.367781260032793 ], [ 31.270442640283758, -22.369920132635126 ], [ 31.273074839419802, -22.373795545738048 ], [ 31.274456863406101, -22.376691251104226 ], [ 31.275279061646341, -22.380890505664549 ], [ 31.276126201198863, -22.385433208793906 ], [ 31.277584512476245, -22.388456143278969 ], [ 31.278793190165423, -22.391250629219638 ], [ 31.28069381102388, -22.393853780496425 ], [ 31.282879613756002, -22.396965690489512 ], [ 31.284689438613491, -22.3998568360213 ], [ 31.286674217905297, -22.403535536396344 ], [ 31.290458394036314, -22.407016511466129 ], [ 31.293877010213421, -22.409427859025467 ], [ 31.298622986005515, -22.412124059800668 ], [ 31.301558950060389, -22.415108175137281 ], [ 31.305498886058459, -22.41861755987215 ], [ 31.309635024750634, -22.421984409943974 ], [ 31.309326385057592, -22.422604338801698 ], [ 31.307605006904581, -22.423570721430561 ], [ 31.307399942727404, -22.423658885399622 ], [ 31.314778732919162, -22.445700159185346 ], [ 31.326108858159007, -22.479531936287316 ], [ 31.331175447862382, -22.494639641420275 ], [ 31.333352423606826, -22.501137613468511 ], [ 31.346303326795983, -22.539970267837912 ], [ 31.350434005102048, -22.552349434482739 ], [ 31.354133534630748, -22.563423593209741 ], [ 31.355532641414726, -22.567619403898625 ], [ 31.416804535022539, -22.75096684390892 ], [ 31.429383542158238, -22.7885710097366 ], [ 31.437380635332055, -22.812456086214087 ], [ 31.469252773775906, -22.907594484681262 ], [ 31.500948971113331, -23.002030335069097 ], [ 31.528520522451068, -23.082694774966622 ], [ 31.547899541509612, -23.140575121897598 ], [ 31.557022232434104, -23.167797894602923 ], [ 31.563165496228454, -23.186160452436717 ], [ 31.563277531431396, -23.187561320642878 ], [ 31.55671458558281, -23.251017752557321 ], [ 31.556634023871148, -23.252145908742904 ], [ 31.551901847041009, -23.318264354152578 ], [ 31.548703030734785, -23.412744469178911 ], [ 31.54953059637327, -23.420311081916925 ], [ 31.561736434182052, -23.48155461348243 ], [ 31.580276705954375, -23.501087013449144 ], [ 31.661460719854571, -23.584801924213963 ], [ 31.69110148649467, -23.626317764999119 ], [ 31.697197796279955, -23.722297177370063 ], [ 31.710316943461176, -23.750755564364603 ], [ 31.750039712723524, -23.84239511610955 ], [ 31.768652992559943, -23.88520760718735 ], [ 31.880812108790206, -23.952994661868363 ], [ 31.8862685474197, -24.000718887169729 ], [ 31.899072975351483, -24.105057411143985 ], [ 31.897269537406281, -24.105405649586181 ], [ 31.896914983634968, -24.105448245839149 ], [ 31.893668282654325, -24.10658977817058 ], [ 31.892535171003299, -24.107927193587244 ], [ 31.890637830453329, -24.111173629658239 ], [ 31.889553258266869, -24.114859436749576 ], [ 31.889074330844842, -24.117908436853529 ], [ 31.891495417775332, -24.12583719101368 ], [ 31.89207544275099, -24.129327368247633 ], [ 31.893202056662801, -24.137914989314375 ], [ 31.894817068493776, -24.1458017174389 ], [ 31.895456729131155, -24.151531994794723 ], [ 31.895128746986469, -24.161057303319176 ], [ 31.898717035538532, -24.178774922070854 ], [ 31.897184469195864, -24.184137262369436 ], [ 31.896099894699194, -24.185475023573709 ], [ 31.893233108682299, -24.186845000743304 ], [ 31.887934551821541, -24.184810600311994 ], [ 31.884780213449211, -24.181879597366549 ], [ 31.882632956646148, -24.177492905774915 ], [ 31.88162914315912, -24.174071854853313 ], [ 31.880104469250082, -24.175072128830397 ], [ 31.876939459393757, -24.176782787287678 ], [ 31.872333564810091, -24.17777831612888 ], [ 31.86772967056854, -24.176308283098095 ], [ 31.86378337135314, -24.173957987698071 ], [ 31.858924061267501, -24.174671265694933 ], [ 31.854685469086423, -24.175316803725671 ], [ 31.850497673166196, -24.175781988211064 ], [ 31.846071422259904, -24.176489085306969 ], [ 31.841995999025745, -24.176494311309469 ], [ 31.839446071796434, -24.175445408064238 ], [ 31.832539130989051, -24.170741804237881 ], [ 31.822290856738487, -24.165515441655302 ], [ 31.813973283086188, -24.16341003096688 ], [ 31.80774904520732, -24.163794985435207 ], [ 31.801696901659174, -24.163666282663662 ], [ 31.79702551878292, -24.162193621322775 ], [ 31.79417345045869, -24.158802629120729 ], [ 31.790581144080566, -24.15042074134977 ], [ 31.787811416375654, -24.145648584844636 ], [ 31.785067897203035, -24.144371494213779 ], [ 31.779321875175945, -24.144235338489519 ], [ 31.775266121778355, -24.147453911079872 ], [ 31.772790590696651, -24.150070995719989 ], [ 31.768517870911413, -24.154326161692019 ], [ 31.764349088608832, -24.161047417669216 ], [ 31.759833762060151, -24.170989672253569 ], [ 31.757928054204022, -24.176690571853065 ], [ 31.757035330501491, -24.180440049423336 ], [ 31.755794557348942, -24.18555933594261 ], [ 31.754560291261924, -24.19607897753448 ], [ 31.752110612887755, -24.201964961905929 ], [ 31.749963700186758, -24.208079145300275 ], [ 31.743816000182679, -24.214485440253529 ], [ 31.736038368573499, -24.22234992081707 ], [ 31.72998757575888, -24.227781106967949 ], [ 31.724356330211855, -24.232565351362311 ], [ 31.720453534647984, -24.231882395056839 ], [ 31.712500453865257, -24.232465524846354 ], [ 31.709174807095977, -24.233150765167871 ], [ 31.704840495548861, -24.235218043929038 ], [ 31.698279301450111, -24.245131681777455 ], [ 31.694920239981183, -24.251947972114728 ], [ 31.694196390629763, -24.258208872847035 ], [ 31.693732929785252, -24.262115062579163 ], [ 31.692780802351223, -24.266604023925471 ], [ 31.692471210829424, -24.271829964562148 ], [ 31.691728073078966, -24.277061199660384 ], [ 31.692008560820348, -24.28141626137463 ], [ 31.69124131413745, -24.288028925689645 ], [ 31.688591576075449, -24.296612018711059 ], [ 31.686412728920626, -24.295789491092691 ], [ 31.685090671113596, -24.292138819603878 ], [ 31.68220628478791, -24.290000725424765 ], [ 31.67669290010689, -24.289627713351415 ], [ 31.673929094440567, -24.290127375943293 ], [ 31.670863710932039, -24.291202290287647 ], [ 31.670196328670908, -24.291900815481871 ], [ 31.669984244008678, -24.293343810351573 ], [ 31.670218368291771, -24.295458954699289 ], [ 31.6697736590367, -24.297477852019536 ], [ 31.668773545516824, -24.299844062381418 ], [ 31.666280289057003, -24.301772735242178 ], [ 31.664057433180002, -24.304218469679647 ], [ 31.665863090464306, -24.307747128010583 ], [ 31.668810044156789, -24.312396503654046 ], [ 31.672603772478556, -24.316186324358522 ], [ 31.676123879683455, -24.318826821149671 ], [ 31.679587163183122, -24.324112627065961 ], [ 31.681116139301626, -24.328731379233737 ], [ 31.680222644887575, -24.333166520370245 ], [ 31.680102796877069, -24.330465417700598 ], [ 31.679030648191851, -24.335016388822801 ], [ 31.677252586274136, -24.33825180219738 ], [ 31.676916313307458, -24.342158983075432 ], [ 31.675694600160295, -24.345904917501226 ], [ 31.67550738428406, -24.359159714989012 ], [ 31.671437055756986, -24.345858653935359 ], [ 31.671239421062833, -24.340240096274503 ], [ 31.671400166751404, -24.336168850889926 ], [ 31.670397854554988, -24.330218148417988 ], [ 31.669383979720756, -24.326326241271307 ], [ 31.667329286714658, -24.325847668538948 ], [ 31.664934338802258, -24.323984444005621 ], [ 31.661934495370598, -24.322486093349589 ], [ 31.657256159346669, -24.314750996439166 ], [ 31.655154028092248, -24.309449685977771 ], [ 31.654706198669526, -24.306131611097999 ], [ 31.650991367333116, -24.29775469247943 ], [ 31.646158563498499, -24.288934280802415 ], [ 31.638967284033122, -24.274078471754006 ] ] ] ] } }
]
}
