{
"type": "FeatureCollection",
"name": "Waterpoints_zambatis_2016",
"crs": { "type": "name", "properties": { "name": "urn:ogc:def:crs:OGC:1.3:CRS84" } },
"features": [
{ "type": "Feature", "properties": { "NAME": "Afsaal", "TYPE": "Borehole", "RANGER_SEC": "MAL", "HOLE_DRILL": "1983", "BOREHOLE_D": "60/5", "BOREHOLE_1": "5450", "STRUCTURES": "SRT", "PURPOSE": "D", "STATUS___S": "O-RO", "REHABILITA": "N/A", "LOCALITY": "Afsaal picnic site", "Y_COORD": -25.28517, "X_COORD": 31.53319, "NOTES___CO": null, "Label": "Open", "Lable_Name": "Afsaal", "Label_Type": "Borehole" }, "geometry": { "type": "Point", "coordinates": [ 31.53319, -25.28517 ] } },
{ "type": "Feature", "properties": { "NAME": "Ampie", "TYPE": "Borehole", "RANGER_SEC": "MAL", "HOLE_DRILL": "c1973", "BOREHOLE_D": "31/8", "BOREHOLE_1": "1703", "STRUCTURES": "SRT", "PURPOSE": "W", "STATUS___S": "O-RO", "REHABILITA": "N/A", "LOCALITY": "13 km NNE Malelane", "Y_COORD": -25.35544, "X_COORD": 31.52741, "NOTES___CO": null, "Label": "Open", "Lable_Name": "Ampie", "Label_Type": "Borehole" }, "geometry": { "type": "Point", "coordinates": [ 31.52741, -25.35544 ] } },
{ "type": "Feature", "properties": { "NAME": "Babalala", "TYPE": "Boreholes (2)", "RANGER_SEC": "VLA", "HOLE_DRILL": "?", "BOREHOLE_D": "11/-", "BOREHOLE_1": "1514", "STRUCTURES": "S", "PURPOSE": "W & D", "STATUS___S": "DRT & D", "REHABILITA": "N/A", "LOCALITY": "5 km SSE Vlakteplaas", "Y_COORD": -22.90582, "X_COORD": 31.24928, "NOTES___CO": "Two boreholes at Babalala, providing water for game & for domestic use.", "Label": "Drought", "Lable_Name": "Babalala", "Label_Type": "Borehole" }, "geometry": { "type": "Point", "coordinates": [ 31.24928, -22.90582 ] } },
{ "type": "Feature", "properties": { "NAME": "Babalala", "TYPE": "Boreholes (2)", "RANGER_SEC": "VLA", "HOLE_DRILL": "?", "BOREHOLE_D": "30/1", "BOREHOLE_1": "14985", "STRUCTURES": "S", "PURPOSE": "W & D", "STATUS___S": "DRT & D", "REHABILITA": "N/A", "LOCALITY": "5 km SSE Vlakteplaas", "Y_COORD": -22.90582, "X_COORD": 31.24928, "NOTES___CO": "Two boreholes at Babalala, providing water for game & for domestic use.", "Label": "Drought", "Lable_Name": "Babalala", "Label_Type": "Borehole" }, "geometry": { "type": "Point", "coordinates": [ 31.24928, -22.90582 ] } },
{ "type": "Feature", "properties": { "NAME": "Balule", "TYPE": "Borehole", "RANGER_SEC": "HOU", "HOLE_DRILL": "?", "BOREHOLE_D": "85/-", "BOREHOLE_1": "5678", "STRUCTURES": "D", "PURPOSE": "D", "STATUS___S": "O-RO", "REHABILITA": "N/A", "LOCALITY": "6 km S Olifants", "Y_COORD": -24.05454, "X_COORD": 31.73373, "NOTES___CO": null, "Label": "Open", "Lable_Name": "Balule", "Label_Type": "Borehole" }, "geometry": { "type": "Point", "coordinates": [ 31.73373, -24.05454 ] } },
{ "type": "Feature", "properties": { "NAME": "Bangu", "TYPE": "Borehole", "RANGER_SEC": "HOU", "HOLE_DRILL": "?", "BOREHOLE_D": "46/5", "BOREHOLE_1": "21800", "STRUCTURES": "D", "PURPOSE": "W", "STATUS___S": "DRT", "REHABILITA": "N/A", "LOCALITY": "14 km SE Olifants", "Y_COORD": -24.109, "X_COORD": 31.82136, "NOTES___CO": null, "Label": "Drought", "Lable_Name": "Bangu", "Label_Type": "Borehole" }, "geometry": { "type": "Point", "coordinates": [ 31.82136, -24.109 ] } },
{ "type": "Feature", "properties": { "NAME": "Berg en Dal (previously Matjulu dam)", "TYPE": "Dam, concrete", "RANGER_SEC": "MAL", "HOLE_DRILL": "1982", "BOREHOLE_D": "-", "BOREHOLE_1": "-", "STRUCTURES": "Wl", "PURPOSE": "W & D", "STATUS___S": "O-RO", "REHABILITA": "N/A", "LOCALITY": "8 km NW Malelane", "Y_COORD": -25.42546, "X_COORD": 31.45126, "NOTES___CO": "Originally known as Matjulu dam when it was built. Registration number: X205/97", "Label": "Open", "Lable_Name": "Berg en Dal dam", "Label_Type": "Dam, concrete" }, "geometry": { "type": "Point", "coordinates": [ 31.45126, -25.42546 ] } },
{ "type": "Feature", "properties": { "NAME": "Boulders rest camp", "TYPE": "Borehole", "RANGER_SEC": "MAH", "HOLE_DRILL": "1985", "BOREHOLE_D": "36/13", "BOREHOLE_1": "9800", "STRUCTURES": "DST", "PURPOSE": "D", "STATUS___S": "O-RO", "REHABILITA": "N/A", "LOCALITY": "11 km SSW Mooiplaas", "Y_COORD": -23.6069, "X_COORD": 31.3795, "NOTES___CO": null, "Label": "Open", "Lable_Name": "Boulders rest camp", "Label_Type": "Borehole" }, "geometry": { "type": "Point", "coordinates": [ 31.3795, -23.6069 ] } },
{ "type": "Feature", "properties": { "NAME": "Bowker Kop", "TYPE": "Borehole N", "RANGER_SEC": "MOO", "HOLE_DRILL": "1972", "BOREHOLE_D": "21/4", "BOREHOLE_1": "21725", "STRUCTURES": "2WRT", "PURPOSE": "W", "STATUS___S": "DRT", "REHABILITA": "N/A", "LOCALITY": "2 km N Mooiplaas", "Y_COORD": -23.49789, "X_COORD": 31.40047, "NOTES___CO": null, "Label": "Drought", "Lable_Name": "Bowker Kop", "Label_Type": "Borehole" }, "geometry": { "type": "Point", "coordinates": [ 31.40047, -23.49789 ] } },
{ "type": "Feature", "properties": { "NAME": "Bowker Kop", "TYPE": "Borehole S", "RANGER_SEC": "MOO", "HOLE_DRILL": "?", "BOREHOLE_D": "34/6", "BOREHOLE_1": "1200", "STRUCTURES": "2WRT", "PURPOSE": "W", "STATUS___S": "DRT", "REHABILITA": "N/A", "LOCALITY": "2 km N Mooiplaas", "Y_COORD": -23.49789, "X_COORD": 31.40047, "NOTES___CO": null, "Label": "Drought", "Lable_Name": "Bowker Kop", "Label_Type": "Borehole" }, "geometry": { "type": "Point", "coordinates": [ 31.40047, -23.49789 ] } },
{ "type": "Feature", "properties": { "NAME": "Boyela No. 1", "TYPE": "Borehole No. 1 SW", "RANGER_SEC": "VLA", "HOLE_DRILL": "1950", "BOREHOLE_D": "42/9", "BOREHOLE_1": "3785", "STRUCTURES": "T", "PURPOSE": "W", "STATUS___S": "O-RO", "REHABILITA": "N/A", "LOCALITY": "10 km SE Vlakteplaas", "Y_COORD": -22.94192, "X_COORD": 31.28558, "NOTES___CO": null, "Label": "Open", "Lable_Name": "Boyela No. 1", "Label_Type": "Borehole" }, "geometry": { "type": "Point", "coordinates": [ 31.28558, -22.94192 ] } },
{ "type": "Feature", "properties": { "NAME": "Boyela No. 1", "TYPE": "Borehole No. 2 NW", "RANGER_SEC": "VLA", "HOLE_DRILL": "1972", "BOREHOLE_D": "57/6", "BOREHOLE_1": "2725", "STRUCTURES": "T", "PURPOSE": "W", "STATUS___S": "O-RO", "REHABILITA": "N/A", "LOCALITY": "10 km SE Vlakteplaas", "Y_COORD": -22.94192, "X_COORD": 31.28558, "NOTES___CO": null, "Label": "Open", "Lable_Name": "Boyela No. 1", "Label_Type": "Borehole" }, "geometry": { "type": "Point", "coordinates": [ 31.28558, -22.94192 ] } },
{ "type": "Feature", "properties": { "NAME": "Boyela No. 1", "TYPE": "Borehole No. 3 >NW", "RANGER_SEC": "VLA", "HOLE_DRILL": "1992", "BOREHOLE_D": "44/3", "BOREHOLE_1": "12000", "STRUCTURES": "T", "PURPOSE": "W", "STATUS___S": "O-RO", "REHABILITA": "N/A", "LOCALITY": "10 km SE Vlakteplaas", "Y_COORD": -22.94192, "X_COORD": 31.28558, "NOTES___CO": null, "Label": "Open", "Lable_Name": "Boyela No. 1", "Label_Type": "Borehole" }, "geometry": { "type": "Point", "coordinates": [ 31.28558, -22.94192 ] } },
{ "type": "Feature", "properties": { "NAME": "Brak Kol", "TYPE": "Borehole", "RANGER_SEC": "STO", "HOLE_DRILL": "1983", "BOREHOLE_D": "60/12", "BOREHOLE_1": "8000", "STRUCTURES": "None", "PURPOSE": "W", "STATUS___S": "O-RO", "REHABILITA": "N/A", "LOCALITY": "11,5 km NE Stolsnek", "Y_COORD": -25.2539, "X_COORD": 31.4748, "NOTES___CO": "Originally sunk ro provide water for road works.", "Label": "Open", "Lable_Name": "Brak Kol", "Label_Type": "Borehole" }, "geometry": { "type": "Point", "coordinates": [ 31.4748, -25.2539 ] } },
{ "type": "Feature", "properties": { "NAME": "Coetzer", "TYPE": "Borehole", "RANGER_SEC": "PUN", "HOLE_DRILL": "c1973", "BOREHOLE_D": "105/-", "BOREHOLE_1": "4440", "STRUCTURES": "WRT", "PURPOSE": "W", "STATUS___S": "DRT", "REHABILITA": "N/A", "LOCALITY": "1 km SE Punda Maria", "Y_COORD": -22.6961, "X_COORD": 31.0214, "NOTES___CO": null, "Label": "Drought", "Lable_Name": "Coetzer", "Label_Type": "Borehole" }, "geometry": { "type": "Point", "coordinates": [ 31.0214, -22.6961 ] } },
{ "type": "Feature", "properties": { "NAME": "Crocodile Bridge rest camp", "TYPE": "Borehole", "RANGER_SEC": "KRO", "HOLE_DRILL": "?", "BOREHOLE_D": "?", "BOREHOLE_1": "?", "STRUCTURES": "None", "PURPOSE": "D", "STATUS___S": "O-RO", "REHABILITA": "N/A", "LOCALITY": "0.5 km E Crocodile Bridge", "Y_COORD": -25.3536, "X_COORD": 31.8947, "NOTES___CO": "No other information found; no file.", "Label": "Open", "Lable_Name": "Crocodile Bridge rest camp", "Label_Type": "Borehole" }, "geometry": { "type": "Point", "coordinates": [ 31.8947, -25.3536 ] } },
{ "type": "Feature", "properties": { "NAME": "De Laporte", "TYPE": "Borehole", "RANGER_SEC": "SKZ", "HOLE_DRILL": "1975", "BOREHOLE_D": "29/4", "BOREHOLE_1": "1893", "STRUCTURES": "WRT", "PURPOSE": "W", "STATUS___S": "DRT", "REHABILITA": "N/A", "LOCALITY": "7 km SSW Skukuza", "Y_COORD": -25.05813, "X_COORD": 31.5691, "NOTES___CO": null, "Label": "Drought", "Lable_Name": "De Laporte", "Label_Type": "Borehole" }, "geometry": { "type": "Point", "coordinates": [ 31.5691, -25.05813 ] } },
{ "type": "Feature", "properties": { "NAME": "Eendrag", "TYPE": "Borehole", "RANGER_SEC": "MOO", "HOLE_DRILL": "?", "BOREHOLE_D": "31/5", "BOREHOLE_1": "6132", "STRUCTURES": "T", "PURPOSE": "W", "STATUS___S": "DRT", "REHABILITA": "N/A", "LOCALITY": "13 km NW Mooiplaas", "Y_COORD": -23.4042, "X_COORD": 31.33172, "NOTES___CO": null, "Label": "Drought", "Lable_Name": "Eendrag", "Label_Type": "Borehole" }, "geometry": { "type": "Point", "coordinates": [ 31.33172, -23.4042 ] } },
{ "type": "Feature", "properties": { "NAME": "Engelhard Dam", "TYPE": "Dam, concrete, weir", "RANGER_SEC": "LET", "HOLE_DRILL": "1971", "BOREHOLE_D": "-", "BOREHOLE_1": "-", "STRUCTURES": "Wl", "PURPOSE": "W", "STATUS___S": "O-RO", "REHABILITA": "N/A", "LOCALITY": "6 km E Letaba", "Y_COORD": -23.83712, "X_COORD": 31.63766, "NOTES___CO": "Gauging weir with fish ladder.", "Label": "Open", "Lable_Name": "Engelhard Dam", "Label_Type": "Dam, concrete weir" }, "geometry": { "type": "Point", "coordinates": [ 31.63766, -23.83712 ] } },
{ "type": "Feature", "properties": { "NAME": "Erfplaas", "TYPE": "Borehole", "RANGER_SEC": "PHA", "HOLE_DRILL": "1975", "BOREHOLE_D": "72/12", "BOREHOLE_1": "5110", "STRUCTURES": "RT", "PURPOSE": "W", "STATUS___S": "O-RO", "REHABILITA": "N/A", "LOCALITY": "14 km E Phalaborwa", "Y_COORD": -23.92063, "X_COORD": 31.30303, "NOTES___CO": null, "Label": "Open", "Lable_Name": "Erfplaas", "Label_Type": "Borehole" }, "geometry": { "type": "Point", "coordinates": [ 31.30303, -23.92063 ] } },
{ "type": "Feature", "properties": { "NAME": "Frazers Rus", "TYPE": "Borehole", "RANGER_SEC": "MOO", "HOLE_DRILL": "1972", "BOREHOLE_D": "20/9", "BOREHOLE_1": "5140", "STRUCTURES": "WR2T", "PURPOSE": "W", "STATUS___S": "DRT", "REHABILITA": "N/A", "LOCALITY": "10 km WNW Mooiplaas", "Y_COORD": -23.48262, "X_COORD": 31.31343, "NOTES___CO": null, "Label": "Drought", "Lable_Name": "Frazers Rus", "Label_Type": "Borehole" }, "geometry": { "type": "Point", "coordinates": [ 31.31343, -23.48262 ] } },
{ "type": "Feature", "properties": { "NAME": "Gezantfombi", "TYPE": "Dam, concrete", "RANGER_SEC": "KRO", "HOLE_DRILL": "c1953", "BOREHOLE_D": "-", "BOREHOLE_1": "-", "STRUCTURES": "Wl", "PURPOSE": "W", "STATUS___S": "<20-NA", "REHABILITA": "1", "LOCALITY": "3 km NW Crocodile Bridge", "Y_COORD": -25.33097, "X_COORD": 31.87876, "NOTES___CO": null, "Label": "Open", "Lable_Name": "Gezantfombi dam", "Label_Type": "Dam, concrete" }, "geometry": { "type": "Point", "coordinates": [ 31.87876, -25.33097 ] } },
{ "type": "Feature", "properties": { "NAME": "Girivana No. 1", "TYPE": "Borehole No. 2 E", "RANGER_SEC": "SAT", "HOLE_DRILL": "1965", "BOREHOLE_D": "53/12", "BOREHOLE_1": "1363", "STRUCTURES": "RT", "PURPOSE": "D", "STATUS___S": "O-RO", "REHABILITA": "N/A", "LOCALITY": "10 km WNW Satara", "Y_COORD": -24.3586, "X_COORD": 31.5816, "NOTES___CO": null, "Label": "Open", "Lable_Name": "Girivana No. 1", "Label_Type": "Borehole" }, "geometry": { "type": "Point", "coordinates": [ 31.5816, -24.3586 ] } },
{ "type": "Feature", "properties": { "NAME": "Girivana No. 1", "TYPE": "Borehole No. 1 W", "RANGER_SEC": "SAT", "HOLE_DRILL": "1950", "BOREHOLE_D": "68/11", "BOREHOLE_1": "1628", "STRUCTURES": "WS", "PURPOSE": "W", "STATUS___S": "DRT", "REHABILITA": "N/A", "LOCALITY": "10 km WNW Satara", "Y_COORD": -24.3586, "X_COORD": 31.5816, "NOTES___CO": null, "Label": "Drought", "Lable_Name": "Girivana No. 1", "Label_Type": "Borehole" }, "geometry": { "type": "Point", "coordinates": [ 31.5816, -24.3586 ] } },
{ "type": "Feature", "properties": { "NAME": "Gomondwane No. 1", "TYPE": "Borehole No. 1 N", "RANGER_SEC": "KRO", "HOLE_DRILL": "1933", "BOREHOLE_D": "54/15", "BOREHOLE_1": "1419", "STRUCTURES": "2WRT", "PURPOSE": "W", "STATUS___S": "DRT", "REHABILITA": "N/A", "LOCALITY": "12,5 km NNE Crocodile Bridge", "Y_COORD": -25.25464, "X_COORD": 31.84552, "NOTES___CO": "Borehole No. 1 abandoned.", "Label": "Drought", "Lable_Name": "Gomondwane No. 1", "Label_Type": "Borehole" }, "geometry": { "type": "Point", "coordinates": [ 31.84552, -25.25464 ] } },
{ "type": "Feature", "properties": { "NAME": "Gomondwane No. 1", "TYPE": "Borehole No.2 E", "RANGER_SEC": "KRO", "HOLE_DRILL": "1965", "BOREHOLE_D": "35/12", "BOREHOLE_1": "2725", "STRUCTURES": "2WRT", "PURPOSE": "W", "STATUS___S": "DRT", "REHABILITA": "N/A", "LOCALITY": "12,5 km NNE Crocodile Bridge", "Y_COORD": -25.25464, "X_COORD": 31.84552, "NOTES___CO": "Borehole No. 1 abandoned.", "Label": "Drought", "Lable_Name": "Gomondwane No. 1", "Label_Type": "Borehole" }, "geometry": { "type": "Point", "coordinates": [ 31.84552, -25.25464 ] } },
{ "type": "Feature", "properties": { "NAME": "Gomondwane No. 1", "TYPE": "Borehole No. 3 W", "RANGER_SEC": "KRO", "HOLE_DRILL": "?", "BOREHOLE_D": "80/-", "BOREHOLE_1": "2000", "STRUCTURES": "2WRT", "PURPOSE": "W", "STATUS___S": "DRT", "REHABILITA": "N/A", "LOCALITY": "12,5 km NNE Crocodile Bridge", "Y_COORD": -25.25464, "X_COORD": 31.84552, "NOTES___CO": "Borehole No. 1 abandoned.", "Label": "Drought", "Lable_Name": "Gomondwane No. 1", "Label_Type": "Borehole" }, "geometry": { "type": "Point", "coordinates": [ 31.84552, -25.25464 ] } },
{ "type": "Feature", "properties": { "NAME": "Grysbok", "TYPE": "Borehole", "RANGER_SEC": "MOO", "HOLE_DRILL": "1972", "BOREHOLE_D": "39/5", "BOREHOLE_1": "10704", "STRUCTURES": "WRT", "PURPOSE": "W", "STATUS___S": "DRT", "REHABILITA": "NA", "LOCALITY": "8,5 km NW Mooiplaas", "Y_COORD": -23.4515, "X_COORD": 31.34872, "NOTES___CO": null, "Label": "Drought", "Lable_Name": "Grysbok", "Label_Type": "Borehole" }, "geometry": { "type": "Point", "coordinates": [ 31.34872, -23.4515 ] } },
{ "type": "Feature", "properties": { "NAME": "Gudzani", "TYPE": "Dam, concrete", "RANGER_SEC": "NWA", "HOLE_DRILL": "c1950", "BOREHOLE_D": "-", "BOREHOLE_1": "-", "STRUCTURES": "Wl", "PURPOSE": "W", "STATUS___S": "O-RO", "REHABILITA": "N/A", "LOCALITY": "11 km NNW N'wanetsi", "Y_COORD": -24.36281, "X_COORD": 31.92411, "NOTES___CO": null, "Label": "Open", "Lable_Name": "Gudzani dam", "Label_Type": "Dam, concrete" }, "geometry": { "type": "Point", "coordinates": [ 31.92411, -24.36281 ] } },
{ "type": "Feature", "properties": { "NAME": "Hamiltons Camp", "TYPE": "Borehole", "RANGER_SEC": "KFI", "HOLE_DRILL": "?", "BOREHOLE_D": "?", "BOREHOLE_1": "?", "STRUCTURES": "E", "PURPOSE": "D", "STATUS___S": "O-RO", "REHABILITA": "N/A", "LOCALITY": null, "Y_COORD": -24.6164, "X_COORD": 31.66413, "NOTES___CO": null, "Label": "Open", "Lable_Name": "Hamiltons Camp", "Label_Type": "Borehole" }, "geometry": { "type": "Point", "coordinates": [ 31.66413, -24.6164 ] } },
{ "type": "Feature", "properties": { "NAME": "Hillside No. 1", "TYPE": "Borehole No. 1", "RANGER_SEC": "OSA", "HOLE_DRILL": "1980", "BOREHOLE_D": "81/-", "BOREHOLE_1": "757", "STRUCTURES": "RT", "PURPOSE": "W", "STATUS___S": "O-RO", "REHABILITA": "N/A", "LOCALITY": "17 km N Lower Sabie", "Y_COORD": -24.96862, "X_COORD": 31.913, "NOTES___CO": null, "Label": "Open", "Lable_Name": "Hillside No. 1", "Label_Type": "Borehole" }, "geometry": { "type": "Point", "coordinates": [ 31.913, -24.96862 ] } },
{ "type": "Feature", "properties": { "NAME": "Hillside No. 1", "TYPE": "Borehole No. 2", "RANGER_SEC": "OSA", "HOLE_DRILL": "1980", "BOREHOLE_D": "85/-", "BOREHOLE_1": "1514", "STRUCTURES": "RT", "PURPOSE": "W", "STATUS___S": "O-RO", "REHABILITA": "N/A", "LOCALITY": "17 km N Lower Sabie", "Y_COORD": -24.96862, "X_COORD": 31.913, "NOTES___CO": null, "Label": "Open", "Lable_Name": "Hillside No. 1", "Label_Type": "Borehole" }, "geometry": { "type": "Point", "coordinates": [ 31.913, -24.96862 ] } },
{ "type": "Feature", "properties": { "NAME": "Jock of the Bushveld No. 1", "TYPE": "Borehole No. 1", "RANGER_SEC": "STO", "HOLE_DRILL": "1983", "BOREHOLE_D": "31/12", "BOREHOLE_1": "5000", "STRUCTURES": "D", "PURPOSE": "D", "STATUS___S": "O-RO", "REHABILITA": "N/A", "LOCALITY": "25 km SSW Skukuza", "Y_COORD": -25.2105, "X_COORD": 31.5639, "NOTES___CO": "Spare borehole", "Label": "Open", "Lable_Name": "Jock of the Bushveld No. 1", "Label_Type": "Borehole" }, "geometry": { "type": "Point", "coordinates": [ 31.5639, -25.2105 ] } },
{ "type": "Feature", "properties": { "NAME": "Jock of the Bushveld No. 1", "TYPE": "Borehole No. 2", "RANGER_SEC": "STO", "HOLE_DRILL": "1983", "BOREHOLE_D": "61/13", "BOREHOLE_1": "3500", "STRUCTURES": "None", "PURPOSE": "D", "STATUS___S": "O-RO", "REHABILITA": "N/A", "LOCALITY": "25 km SSW Skukuza", "Y_COORD": -25.2105, "X_COORD": 31.5639, "NOTES___CO": null, "Label": "Open", "Lable_Name": "Jock of the Bushveld No. 1", "Label_Type": "Borehole" }, "geometry": { "type": "Point", "coordinates": [ 31.5639, -25.2105 ] } },
{ "type": "Feature", "properties": { "NAME": "Kanniedood", "TYPE": "Dam, concrete", "RANGER_SEC": "SHI", "HOLE_DRILL": "1975", "BOREHOLE_D": "-", "BOREHOLE_1": "-", "STRUCTURES": "Wl", "PURPOSE": "W", "STATUS___S": "O-RO", "REHABILITA": "N/A", "LOCALITY": "5 km SE Shingwedzi", "Y_COORD": -23.12675, "X_COORD": 31.45457, "NOTES___CO": "Registration number: B902/04. Wall to be modified and reduced to a gauging weir.", "Label": "Open", "Lable_Name": "Kanniedood dam", "Label_Type": "Dam, concrete" }, "geometry": { "type": "Point", "coordinates": [ 31.45457, -23.12675 ] } },
{ "type": "Feature", "properties": { "NAME": "Klein Shawu", "TYPE": "Borehole", "RANGER_SEC": "MOO", "HOLE_DRILL": "1975", "BOREHOLE_D": "43/9", "BOREHOLE_1": "34065", "STRUCTURES": "WRT", "PURPOSE": "W", "STATUS___S": "O-RO", "REHABILITA": "N/A", "LOCALITY": "16 km SE Mooiplaas", "Y_COORD": -23.64132, "X_COORD": 31.4841, "NOTES___CO": null, "Label": "Open", "Lable_Name": "Klein Shawu", "Label_Type": "Borehole" }, "geometry": { "type": "Point", "coordinates": [ 31.4841, -23.64132 ] } },
{ "type": "Feature", "properties": { "NAME": "Klopper Fontein", "TYPE": "Dam, concrete", "RANGER_SEC": "PUN", "HOLE_DRILL": "1955", "BOREHOLE_D": "-", "BOREHOLE_1": "-", "STRUCTURES": "Wl", "PURPOSE": "W", "STATUS___S": "<20-A", "REHABILITA": "1", "LOCALITY": "17 km ENE Punda Maria", "Y_COORD": -22.62867, "X_COORD": 31.17171, "NOTES___CO": null, "Label": "Open", "Lable_Name": "Klopper Fontein dam", "Label_Type": "Dam, concrete" }, "geometry": { "type": "Point", "coordinates": [ 31.17171, -22.62867 ] } },
{ "type": "Feature", "properties": { "NAME": "Klopper Fontein No. 1", "TYPE": "Borehole No. 1", "RANGER_SEC": "PAF", "HOLE_DRILL": "1966", "BOREHOLE_D": "62/9", "BOREHOLE_1": "3123", "STRUCTURES": "WRT", "PURPOSE": "W", "STATUS___S": "DRT", "REHABILITA": "N/A", "LOCALITY": "16 km ENE Punda Maria", "Y_COORD": -22.63666, "X_COORD": 31.16501, "NOTES___CO": null, "Label": "Drought", "Lable_Name": "Klopper Fontein No. 1", "Label_Type": "Borehole" }, "geometry": { "type": "Point", "coordinates": [ 31.16501, -22.63666 ] } },
{ "type": "Feature", "properties": { "NAME": "Klopper Fontein No. 1", "TYPE": "Borehole No. 2", "RANGER_SEC": "PAF", "HOLE_DRILL": "1969", "BOREHOLE_D": "38/8", "BOREHOLE_1": "2502", "STRUCTURES": "WRT", "PURPOSE": "W", "STATUS___S": "DRT", "REHABILITA": "N/A", "LOCALITY": "16 km ENE Punda Maria", "Y_COORD": -22.63666, "X_COORD": 31.16501, "NOTES___CO": null, "Label": "Drought", "Lable_Name": "Klopper Fontein No. 1", "Label_Type": "Borehole" }, "geometry": { "type": "Point", "coordinates": [ 31.16501, -22.63666 ] } },
{ "type": "Feature", "properties": { "NAME": "Komapiti", "TYPE": "Borehole", "RANGER_SEC": "STO", "HOLE_DRILL": "1933", "BOREHOLE_D": "41/11", "BOREHOLE_1": "15140", "STRUCTURES": "WRT", "PURPOSE": "W", "STATUS___S": "DRT", "REHABILITA": "N/A", "LOCALITY": "14 km ESE Pretoriuskop", "Y_COORD": -25.21855, "X_COORD": 31.39655, "NOTES___CO": null, "Label": "Drought", "Lable_Name": "Komapiti", "Label_Type": "Borehole" }, "geometry": { "type": "Point", "coordinates": [ 31.39655, -25.21855 ] } },
{ "type": "Feature", "properties": { "NAME": "Kumana", "TYPE": "Dam, earthen", "RANGER_SEC": "NWA", "HOLE_DRILL": "1933", "BOREHOLE_D": "-", "BOREHOLE_1": "-", "STRUCTURES": "Wl", "PURPOSE": "W", "STATUS___S": "O-RO", "REHABILITA": "N/A", "LOCALITY": "19 km NNW Tshokwane", "Y_COORD": -24.61963, "X_COORD": 31.79528, "NOTES___CO": "Small earthen dam, borehole in depression near N'waswitsontso Rivier", "Label": "Open", "Lable_Name": "Kumana dam", "Label_Type": "Dam, earthen" }, "geometry": { "type": "Point", "coordinates": [ 31.79528, -24.61963 ] } },
{ "type": "Feature", "properties": { "NAME": "Kumana No. 1", "TYPE": "Borehole No. 1 SSW", "RANGER_SEC": "NWA", "HOLE_DRILL": "1962", "BOREHOLE_D": "31/13", "BOREHOLE_1": "1143", "STRUCTURES": "WRT", "PURPOSE": "W", "STATUS___S": "DRT", "REHABILITA": "N/A", "LOCALITY": "19 km NNW Tshokwane", "Y_COORD": -24.61845, "X_COORD": 31.79523, "NOTES___CO": "Borehole collapsed and all infrastructure uncervisable.", "Label": "Drought", "Lable_Name": "Kumana No. 1", "Label_Type": "Borehole" }, "geometry": { "type": "Point", "coordinates": [ 31.79523, -24.61845 ] } },
{ "type": "Feature", "properties": { "NAME": "Kumana No. 1", "TYPE": "Borehole No. 2 SE", "RANGER_SEC": "NWA", "HOLE_DRILL": "1963", "BOREHOLE_D": "59/16", "BOREHOLE_1": "1946", "STRUCTURES": "WRT", "PURPOSE": "W", "STATUS___S": "DRT", "REHABILITA": "N/A", "LOCALITY": "19 km NNW Tshokwane", "Y_COORD": -24.61845, "X_COORD": 31.79523, "NOTES___CO": null, "Label": "Drought", "Lable_Name": "Kumana No. 1", "Label_Type": "Borehole" }, "geometry": { "type": "Point", "coordinates": [ 31.79523, -24.61845 ] } },
{ "type": "Feature", "properties": { "NAME": "Kwaggas Pan", "TYPE": "Borehole", "RANGER_SEC": "SKZ", "HOLE_DRILL": "1976", "BOREHOLE_D": "43/17", "BOREHOLE_1": "27252", "STRUCTURES": "WRT", "PURPOSE": "W", "STATUS___S": "DRT", "REHABILITA": "N/A", "LOCALITY": "17 km SSW Skukuza", "Y_COORD": -25.14479, "X_COORD": 31.55894, "NOTES___CO": null, "Label": "Drought", "Lable_Name": "Kwaggas Pan", "Label_Type": "Borehole" }, "geometry": { "type": "Point", "coordinates": [ 31.55894, -25.14479 ] } },
{ "type": "Feature", "properties": { "NAME": "Lake Panic (lower)", "TYPE": "Dam, earthen", "RANGER_SEC": "SKZ", "HOLE_DRILL": "c1975", "BOREHOLE_D": "-", "BOREHOLE_1": "-", "STRUCTURES": "Wl", "PURPOSE": "D", "STATUS___S": "O-RO", "REHABILITA": "N/A", "LOCALITY": "1,5 km NW Skukuza", "Y_COORD": -24.98509, "X_COORD": 31.57438, "NOTES___CO": "One of 2 earthen dams in Mafunyana stream near Skukuza; constructed for emergency water storage. Registration number: X301/95.", "Label": "Open", "Lable_Name": "Lake Panic (lower)", "Label_Type": "Dam, earthen" }, "geometry": { "type": "Point", "coordinates": [ 31.57438, -24.98509 ] } },
{ "type": "Feature", "properties": { "NAME": "Lake Panic (upper)", "TYPE": "Dam, earthen", "RANGER_SEC": "SKZ", "HOLE_DRILL": "?", "BOREHOLE_D": "-", "BOREHOLE_1": "-", "STRUCTURES": "Wl", "PURPOSE": "D", "STATUS___S": "O-RO", "REHABILITA": "N/A", "LOCALITY": "1,5 km NW Skukuza", "Y_COORD": -24.98173, "X_COORD": 31.57008, "NOTES___CO": "One of 2 earthen dams in Mafunyana stream near Skukuza; constructed for emergency water storage. Registration number: X301/96.", "Label": "Open", "Lable_Name": "Lake Panic (upper)", "Label_Type": "Dam, earthen" }, "geometry": { "type": "Point", "coordinates": [ 31.57008, -24.98173 ] } },
{ "type": "Feature", "properties": { "NAME": "Lamont", "TYPE": "Borehole", "RANGER_SEC": "SHI", "HOLE_DRILL": "c1974", "BOREHOLE_D": "38/13", "BOREHOLE_1": "13936", "STRUCTURES": "S", "PURPOSE": "W", "STATUS___S": "O-RO", "REHABILITA": "N/A", "LOCALITY": "6 km NNW Shingwedzi", "Y_COORD": -23.0713, "X_COORD": 31.40492, "NOTES___CO": null, "Label": "Open", "Lable_Name": "Lamont", "Label_Type": "Borehole" }, "geometry": { "type": "Point", "coordinates": [ 31.40492, -23.0713 ] } },
{ "type": "Feature", "properties": { "NAME": "Letaba rest camp", "TYPE": "Boreholes (6)", "RANGER_SEC": "LET", "HOLE_DRILL": "1920", "BOREHOLE_D": "-", "BOREHOLE_1": "-", "STRUCTURES": "-", "PURPOSE": "D", "STATUS___S": "O-RO", "REHABILITA": "N/A", "LOCALITY": "Letaba", "Y_COORD": -23.8544, "X_COORD": 31.5714, "NOTES___CO": "Six boreholes in the vicinity of the camp; see file for details. Only one is operational; others are contaminated or do not work.", "Label": "Open", "Lable_Name": "Letaba rest camp", "Label_Type": "Borehole" }, "geometry": { "type": "Point", "coordinates": [ 31.5714, -23.8544 ] } },
{ "type": "Feature", "properties": { "NAME": "Lisbon Weir", "TYPE": "Dam, concrete", "RANGER_SEC": "SKZ", "HOLE_DRILL": "?", "BOREHOLE_D": "-", "BOREHOLE_1": "-", "STRUCTURES": "Wl", "PURPOSE": "W", "STATUS___S": "O-RO", "REHABILITA": "N/A", "LOCALITY": "?", "Y_COORD": -24.98383, "X_COORD": 31.43134, "NOTES___CO": "At Lisbon Estates. Now used by Mjejane as a bridge.", "Label": "Open", "Lable_Name": "Lisbon Weir", "Label_Type": "Dam, concrete" }, "geometry": { "type": "Point", "coordinates": [ 31.43134, -24.98383 ] } },
{ "type": "Feature", "properties": { "NAME": "Louis se gat (Mbuhle)", "TYPE": "Borehole", "RANGER_SEC": "SHI", "HOLE_DRILL": "?", "BOREHOLE_D": "?", "BOREHOLE_1": "?", "STRUCTURES": "D", "PURPOSE": "D", "STATUS___S": "O-RO", "REHABILITA": "N/A", "LOCALITY": "2,4 km ESE Shingwedzi", "Y_COORD": -23.11, "X_COORD": 31.45727, "NOTES___CO": "Also known as Mbuhle. No other information found; no file.", "Label": "Open", "Lable_Name": "Louis se gat (Mbuhle)", "Label_Type": "Borehole" }, "geometry": { "type": "Point", "coordinates": [ 31.45727, -23.11 ] } },
{ "type": "Feature", "properties": { "NAME": "Machangani No. 1", "TYPE": "Borehole No. 1 SE", "RANGER_SEC": "PHA", "HOLE_DRILL": "1969", "BOREHOLE_D": "29/15", "BOREHOLE_1": "10091", "STRUCTURES": "RT", "PURPOSE": "W", "STATUS___S": "DRT", "REHABILITA": "N/A", "LOCALITY": "6,5 km NE Phalaborwa", "Y_COORD": -23.91843, "X_COORD": 31.22687, "NOTES___CO": "Structure removed", "Label": "Drought", "Lable_Name": "Machangani No. 1", "Label_Type": "Borehole" }, "geometry": { "type": "Point", "coordinates": [ 31.22687, -23.91843 ] } },
{ "type": "Feature", "properties": { "NAME": "Machangani No. 1", "TYPE": "Borehole No. 2 ENE", "RANGER_SEC": "PHA", "HOLE_DRILL": "1983", "BOREHOLE_D": "72/16", "BOREHOLE_1": "3785", "STRUCTURES": "RT", "PURPOSE": "W", "STATUS___S": "DRT", "REHABILITA": "N/A", "LOCALITY": "6,5 km NE Phalaborwa", "Y_COORD": -23.91843, "X_COORD": 31.22687, "NOTES___CO": null, "Label": "Drought", "Lable_Name": "Machangani No. 1", "Label_Type": "Borehole" }, "geometry": { "type": "Point", "coordinates": [ 31.22687, -23.91843 ] } },
{ "type": "Feature", "properties": { "NAME": "Magamba No. 1", "TYPE": "Borehole No. 1 N", "RANGER_SEC": "PUN", "HOLE_DRILL": "1968", "BOREHOLE_D": "38/6", "BOREHOLE_1": "4716", "STRUCTURES": "WRT", "PURPOSE": "W", "STATUS___S": "DRT", "REHABILITA": "N/A", "LOCALITY": "19,5 km ESE Punda Maria", "Y_COORD": -22.76925, "X_COORD": 31.19412, "NOTES___CO": null, "Label": "Drought", "Lable_Name": "Magamba No. 1", "Label_Type": "Borehole" }, "geometry": { "type": "Point", "coordinates": [ 31.19412, -22.76925 ] } },
{ "type": "Feature", "properties": { "NAME": "Magamba No. 1", "TYPE": "Borehole No. 2 S", "RANGER_SEC": "PUN", "HOLE_DRILL": "1950", "BOREHOLE_D": "37/10", "BOREHOLE_1": "863", "STRUCTURES": "WRT", "PURPOSE": "W", "STATUS___S": "DRT", "REHABILITA": "N/A", "LOCALITY": "19,5 km ESE Punda Maria", "Y_COORD": -22.76925, "X_COORD": 31.19412, "NOTES___CO": null, "Label": "Drought", "Lable_Name": "Magamba No. 1", "Label_Type": "Borehole" }, "geometry": { "type": "Point", "coordinates": [ 31.19412, -22.76925 ] } },
{ "type": "Feature", "properties": { "NAME": "Magamba No. 1", "TYPE": "Borehole No. 3 ?", "RANGER_SEC": "PUN", "HOLE_DRILL": "1992", "BOREHOLE_D": "117/10", "BOREHOLE_1": "4800", "STRUCTURES": "WRT", "PURPOSE": "W", "STATUS___S": "DRT", "REHABILITA": "N/A", "LOCALITY": "19,5 km ESE Punda Maria", "Y_COORD": -22.76925, "X_COORD": 31.19412, "NOTES___CO": null, "Label": "Drought", "Lable_Name": "Magamba No. 1", "Label_Type": "Borehole" }, "geometry": { "type": "Point", "coordinates": [ 31.19412, -22.76925 ] } },
{ "type": "Feature", "properties": { "NAME": "Makhadzi", "TYPE": "Borehole", "RANGER_SEC": "LET", "HOLE_DRILL": "1950", "BOREHOLE_D": "29/6", "BOREHOLE_1": "7740", "STRUCTURES": "SR", "PURPOSE": "D", "STATUS___S": "O-RO", "REHABILITA": "N/A", "LOCALITY": "17,5 km NNE Letaba", "Y_COORD": -23.69553, "X_COORD": 31.6195, "NOTES___CO": "Provides water to Makhadzi picnic site.", "Label": "Open", "Lable_Name": "Makhadzi", "Label_Type": "Borehole" }, "geometry": { "type": "Point", "coordinates": [ 31.6195, -23.69553 ] } },
{ "type": "Feature", "properties": { "NAME": "Malelane Gate No. 1", "TYPE": "Borehole No.1 W of bridge", "RANGER_SEC": "MAL", "HOLE_DRILL": "?", "BOREHOLE_D": "80/12", "BOREHOLE_1": "3000", "STRUCTURES": "E", "PURPOSE": "D", "STATUS___S": "O-RO", "REHABILITA": "N/A", "LOCALITY": "1 km SSE Malelane", "Y_COORD": -25.48028, "X_COORD": 31.5083, "NOTES___CO": null, "Label": "Open", "Lable_Name": "Malelane Gate No. 1", "Label_Type": "Borehole" }, "geometry": { "type": "Point", "coordinates": [ 31.5083, -25.48028 ] } },
{ "type": "Feature", "properties": { "NAME": "Malelane Gate No. 1", "TYPE": "Borehole No. 2 NNE of bridge", "RANGER_SEC": "MAL", "HOLE_DRILL": "?", "BOREHOLE_D": "110/16", "BOREHOLE_1": "1200", "STRUCTURES": "E", "PURPOSE": "D", "STATUS___S": "O-RO", "REHABILITA": "N/A", "LOCALITY": "1 km SSE Malelane", "Y_COORD": -25.48028, "X_COORD": 31.5083, "NOTES___CO": null, "Label": "Open", "Lable_Name": "Malelane Gate No. 1", "Label_Type": "Borehole" }, "geometry": { "type": "Point", "coordinates": [ 31.5083, -25.48028 ] } },
{ "type": "Feature", "properties": { "NAME": "Malelane Gate No. 1", "TYPE": "Borehole No. 3 NE of bridge", "RANGER_SEC": "MAL", "HOLE_DRILL": "?", "BOREHOLE_D": "140/15", "BOREHOLE_1": "4400", "STRUCTURES": "E", "PURPOSE": "D", "STATUS___S": "O-RO", "REHABILITA": "N/A", "LOCALITY": "1 km SSE Malelane", "Y_COORD": -25.48028, "X_COORD": 31.5083, "NOTES___CO": null, "Label": "Open", "Lable_Name": "Malelane Gate No. 1", "Label_Type": "Borehole" }, "geometry": { "type": "Point", "coordinates": [ 31.5083, -25.48028 ] } },
{ "type": "Feature", "properties": { "NAME": "Malelane Gate No. 1", "TYPE": "Borehole No. 4 NNW of bridge", "RANGER_SEC": "MAL", "HOLE_DRILL": "?", "BOREHOLE_D": "84/15", "BOREHOLE_1": "9000", "STRUCTURES": "E", "PURPOSE": "D", "STATUS___S": "O-RO", "REHABILITA": "N/A", "LOCALITY": "1 km SSE Malelane", "Y_COORD": -25.48028, "X_COORD": 31.5083, "NOTES___CO": null, "Label": "Open", "Lable_Name": "Malelane Gate No. 1", "Label_Type": "Borehole" }, "geometry": { "type": "Point", "coordinates": [ 31.5083, -25.48028 ] } },
{ "type": "Feature", "properties": { "NAME": "Malopenyana", "TYPE": "Borehole", "RANGER_SEC": "LET", "HOLE_DRILL": "1949", "BOREHOLE_D": "37/4", "BOREHOLE_1": "8013", "STRUCTURES": "WR2T", "PURPOSE": "W", "STATUS___S": "DRT", "REHABILITA": "N/A", "LOCALITY": "16 km NNE Letaba", "Y_COORD": -23.70972, "X_COORD": 31.54238, "NOTES___CO": null, "Label": "Drought", "Lable_Name": "Malopenyana", "Label_Type": "Borehole" }, "geometry": { "type": "Point", "coordinates": [ 31.54238, -23.70972 ] } },
{ "type": "Feature", "properties": { "NAME": "Mantimahle dam", "TYPE": "Dam, earthen", "RANGER_SEC": "TSH", "HOLE_DRILL": "c1969", "BOREHOLE_D": "-", "BOREHOLE_1": "-", "STRUCTURES": "Wl", "PURPOSE": "W", "STATUS___S": "<20-A", "REHABILITA": "1", "LOCALITY": "18 km SW Tshokwane", "Y_COORD": -24.89878, "X_COORD": 31.73029, "NOTES___CO": "Earthen dam, borehole in Mantimahle spruit constructed in 1969 for the construction of the road", "Label": "Open", "Lable_Name": "Mantimahle dam", "Label_Type": "Dam, earthen" }, "geometry": { "type": "Point", "coordinates": [ 31.73029, -24.89878 ] } },
{ "type": "Feature", "properties": { "NAME": "Manzimhlophe No. 1", "TYPE": "Borehole No. 1 SW", "RANGER_SEC": "TSH", "HOLE_DRILL": "1962", "BOREHOLE_D": "32/17", "BOREHOLE_1": "2441", "STRUCTURES": "SRT", "PURPOSE": "W", "STATUS___S": "DRT", "REHABILITA": "N/A", "LOCALITY": "14 km SW Tshokwane", "Y_COORD": -24.84305, "X_COORD": 31.73529, "NOTES___CO": null, "Label": "Drought", "Lable_Name": "Manzimhlophe No. 1", "Label_Type": "Borehole" }, "geometry": { "type": "Point", "coordinates": [ 31.73529, -24.84305 ] } },
{ "type": "Feature", "properties": { "NAME": "Manzimhlophe No. 1", "TYPE": "Borehole No. 2 SE", "RANGER_SEC": "TSH", "HOLE_DRILL": "1962", "BOREHOLE_D": "34/18", "BOREHOLE_1": "4542", "STRUCTURES": "SRT", "PURPOSE": "W", "STATUS___S": "DRT", "REHABILITA": "N/A", "LOCALITY": "14 km SW Tshokwane", "Y_COORD": -24.84305, "X_COORD": 31.73529, "NOTES___CO": null, "Label": "Drought", "Lable_Name": "Manzimhlophe No. 1", "Label_Type": "Borehole" }, "geometry": { "type": "Point", "coordinates": [ 31.73529, -24.84305 ] } },
{ "type": "Feature", "properties": { "NAME": "Maroela", "TYPE": "Borehole", "RANGER_SEC": "KFI", "HOLE_DRILL": "c1973", "BOREHOLE_D": "?", "BOREHOLE_1": "?", "STRUCTURES": "E", "PURPOSE": "D", "STATUS___S": "O-RO", "REHABILITA": "N/A", "LOCALITY": "5 km W Kingfisherspruit", "Y_COORD": -24.45689, "X_COORD": 31.39856, "NOTES___CO": "No other information found; no file.", "Label": "Open", "Lable_Name": "Maroela", "Label_Type": "Borehole" }, "geometry": { "type": "Point", "coordinates": [ 31.39856, -24.45689 ] } },
{ "type": "Feature", "properties": { "NAME": "Mashagadzi", "TYPE": "Borehole", "RANGER_SEC": "SHI", "HOLE_DRILL": "1950", "BOREHOLE_D": "43/5", "BOREHOLE_1": "6488", "STRUCTURES": "WRT", "PURPOSE": "W", "STATUS___S": "O-RO", "REHABILITA": "N/A", "LOCALITY": "3 km SSW Shingwedzi", "Y_COORD": -23.14042, "X_COORD": 31.41997, "NOTES___CO": null, "Label": "Open", "Lable_Name": "Mashagadzi", "Label_Type": "Borehole" }, "geometry": { "type": "Point", "coordinates": [ 31.41997, -23.14042 ] } },
{ "type": "Feature", "properties": { "NAME": "Mashikiri No. 1", "TYPE": "Borehole No. 1", "RANGER_SEC": "PAF", "HOLE_DRILL": "1939", "BOREHOLE_D": "9/6", "BOREHOLE_1": "1514", "STRUCTURES": "2WR2T", "PURPOSE": "W", "STATUS___S": "O-RO", "REHABILITA": "N/A", "LOCALITY": "18,5 km SSW Pafuri", "Y_COORD": -22.58691, "X_COORD": 31.18178, "NOTES___CO": null, "Label": "Open", "Lable_Name": "Mashikiri No. 1", "Label_Type": "Borehole" }, "geometry": { "type": "Point", "coordinates": [ 31.18178, -22.58691 ] } },
{ "type": "Feature", "properties": { "NAME": "Mashikiri No. 1", "TYPE": "Borehole No. 2", "RANGER_SEC": "PAF", "HOLE_DRILL": "1968", "BOREHOLE_D": "31/5", "BOREHOLE_1": "3407", "STRUCTURES": "2WR2T", "PURPOSE": "W", "STATUS___S": "O-RO", "REHABILITA": "N/A", "LOCALITY": "18,5 km SSW Pafuri", "Y_COORD": -22.58691, "X_COORD": 31.18178, "NOTES___CO": null, "Label": "Open", "Lable_Name": "Mashikiri No. 1", "Label_Type": "Borehole" }, "geometry": { "type": "Point", "coordinates": [ 31.18178, -22.58691 ] } },
{ "type": "Feature", "properties": { "NAME": "Masorini", "TYPE": "Borehole", "RANGER_SEC": "PHA", "HOLE_DRILL": "1969", "BOREHOLE_D": "59/21", "BOREHOLE_1": "1136", "STRUCTURES": "RT", "PURPOSE": "W", "STATUS___S": "DRT", "REHABILITA": "N/A", "LOCALITY": "11 km ENE Phalaborwa", "Y_COORD": -23.92665, "X_COORD": 31.27442, "NOTES___CO": null, "Label": "Drought", "Lable_Name": "Masorini", "Label_Type": "Borehole" }, "geometry": { "type": "Point", "coordinates": [ 31.27442, -23.92665 ] } },
{ "type": "Feature", "properties": { "NAME": "Matjulu No. 1", "TYPE": "Borehole No. 1 SW", "RANGER_SEC": "MAL", "HOLE_DRILL": "1967", "BOREHOLE_D": "56/11", "BOREHOLE_1": "8516", "STRUCTURES": "SRT", "PURPOSE": "W", "STATUS___S": "O-RO", "REHABILITA": "N/A", "LOCALITY": "10,5 km NW Malelane", "Y_COORD": -25.40305, "X_COORD": 31.4365, "NOTES___CO": null, "Label": "Open", "Lable_Name": "Matjulu No. 1", "Label_Type": "Borehole" }, "geometry": { "type": "Point", "coordinates": [ 31.4365, -25.40305 ] } },
{ "type": "Feature", "properties": { "NAME": "Matjulu No. 1", "TYPE": "Borehole No. 2 SSW", "RANGER_SEC": "MAL", "HOLE_DRILL": "1976", "BOREHOLE_D": "34/19", "BOREHOLE_1": "1136", "STRUCTURES": "SRT", "PURPOSE": "W", "STATUS___S": "O-RO", "REHABILITA": "N/A", "LOCALITY": "10,5 km NW Malelane", "Y_COORD": -25.40305, "X_COORD": 31.4365, "NOTES___CO": null, "Label": "Open", "Lable_Name": "Matjulu No. 1", "Label_Type": "Borehole" }, "geometry": { "type": "Point", "coordinates": [ 31.4365, -25.40305 ] } },
{ "type": "Feature", "properties": { "NAME": "Mazithi", "TYPE": "Dam, earthen", "RANGER_SEC": "TSH", "HOLE_DRILL": "c1935", "BOREHOLE_D": "-", "BOREHOLE_1": "-", "STRUCTURES": "Wl", "PURPOSE": "W", "STATUS___S": "O-RO", "REHABILITA": "N/A", "LOCALITY": "7,5 km NNW Tshokwane", "Y_COORD": -24.72157, "X_COORD": 31.83596, "NOTES___CO": null, "Label": "Open", "Lable_Name": "Mazithi dam", "Label_Type": "Dam, earthen" }, "geometry": { "type": "Point", "coordinates": [ 31.83596, -24.72157 ] } },
{ "type": "Feature", "properties": { "NAME": "Mestel", "TYPE": "Dam, earthen", "RANGER_SEC": "PRE", "HOLE_DRILL": "c1969", "BOREHOLE_D": "-", "BOREHOLE_1": "-", "STRUCTURES": "Wl", "PURPOSE": "W", "STATUS___S": "O-RO", "REHABILITA": "N/A", "LOCALITY": "8 km NW Pretoriuskop", "Y_COORD": -25.11726, "X_COORD": 31.215, "NOTES___CO": "Registration number: X301/97", "Label": "Open", "Lable_Name": "Mestel dam", "Label_Type": "Dam, earthen" }, "geometry": { "type": "Point", "coordinates": [ 31.215, -25.11726 ] } },
{ "type": "Feature", "properties": { "NAME": "Mhisana Mond No. 1", "TYPE": "Borehole No. 1 W", "RANGER_SEC": "SAT", "HOLE_DRILL": "1969", "BOREHOLE_D": "38/16", "BOREHOLE_1": "840", "STRUCTURES": "W", "PURPOSE": "W", "STATUS___S": "DRT", "REHABILITA": "N/A", "LOCALITY": "24 km SSW Satara", "Y_COORD": -24.61517, "X_COORD": 31.71928, "NOTES___CO": "Structure removed 2001", "Label": "Drought", "Lable_Name": "Mhisana Mond No. 1", "Label_Type": "Borehole" }, "geometry": { "type": "Point", "coordinates": [ 31.71928, -24.61517 ] } },
{ "type": "Feature", "properties": { "NAME": "Mhisana Mond No. 1", "TYPE": "Borehole No. 2 >w", "RANGER_SEC": "SAT", "HOLE_DRILL": "1970", "BOREHOLE_D": "38/15", "BOREHOLE_1": "1567", "STRUCTURES": "W", "PURPOSE": "W", "STATUS___S": "DRT", "REHABILITA": "N/A", "LOCALITY": "24 km SSW Satara", "Y_COORD": -24.61517, "X_COORD": 31.71928, "NOTES___CO": "Structure removed 2001", "Label": "Drought", "Lable_Name": "Mhisana Mond No. 1", "Label_Type": "Borehole" }, "geometry": { "type": "Point", "coordinates": [ 31.71928, -24.61517 ] } },
{ "type": "Feature", "properties": { "NAME": "Mingerhout", "TYPE": "Dam, concrete weir", "RANGER_SEC": "LET", "HOLE_DRILL": "c1974", "BOREHOLE_D": "-", "BOREHOLE_1": "-", "STRUCTURES": "Wl", "PURPOSE": "W", "STATUS___S": "<20-A", "REHABILITA": "1", "LOCALITY": "12,5 km NNW Letaba", "Y_COORD": -23.75916, "X_COORD": 31.49958, "NOTES___CO": "Registration number: B807/47", "Label": "Open", "Lable_Name": "Mingerhout dam", "Label_Type": "Dam, concrete weir" }, "geometry": { "type": "Point", "coordinates": [ 31.49958, -23.75916 ] } },
{ "type": "Feature", "properties": { "NAME": "Mlondozi No. 1", "TYPE": "Borehole No. 1", "RANGER_SEC": "OSA", "HOLE_DRILL": "c1969", "BOREHOLE_D": "23/12", "BOREHOLE_1": "1136", "STRUCTURES": "None", "PURPOSE": "D", "STATUS___S": "O-RO", "REHABILITA": "N/A", "LOCALITY": "21,5 km N Lower Sabie", "Y_COORD": -25.03712, "X_COORD": 31.9331, "NOTES___CO": null, "Label": "Open", "Lable_Name": "Mlondozi No. 1", "Label_Type": "Borehole" }, "geometry": { "type": "Point", "coordinates": [ 31.9331, -25.03712 ] } },
{ "type": "Feature", "properties": { "NAME": "Mlondozi No. 1", "TYPE": "Borehole No. 2", "RANGER_SEC": "OSA", "HOLE_DRILL": "c1969", "BOREHOLE_D": "61/10", "BOREHOLE_1": "2521", "STRUCTURES": "None", "PURPOSE": "D", "STATUS___S": "O-RO", "REHABILITA": "N/A", "LOCALITY": "21,5 km N Lower Sabie", "Y_COORD": -25.03712, "X_COORD": 31.9331, "NOTES___CO": null, "Label": "Open", "Lable_Name": "Mlondozi No. 1", "Label_Type": "Borehole" }, "geometry": { "type": "Point", "coordinates": [ 31.9331, -25.03712 ] } },
{ "type": "Feature", "properties": { "NAME": "Mlondozi", "TYPE": "Dam, earthen", "RANGER_SEC": "OSA", "HOLE_DRILL": "c1951", "BOREHOLE_D": "-", "BOREHOLE_1": "-", "STRUCTURES": "Wl", "PURPOSE": "W", "STATUS___S": "O-RO", "REHABILITA": "N/A", "LOCALITY": "10 km NNE Lower Sabie", "Y_COORD": -25.03528, "X_COORD": 31.92907, "NOTES___CO": null, "Label": "Open", "Lable_Name": "Mlondozi dam", "Label_Type": "Dam, earthen" }, "geometry": { "type": "Point", "coordinates": [ 31.92907, -25.03528 ] } },
{ "type": "Feature", "properties": { "NAME": "Mooiplaas", "TYPE": "Dam, earthen", "RANGER_SEC": "MOO", "HOLE_DRILL": "?", "BOREHOLE_D": "-", "BOREHOLE_1": "-", "STRUCTURES": "Wl", "PURPOSE": "W", "STATUS___S": "<20-NA", "REHABILITA": "4", "LOCALITY": "5 km SE Mooiplaas", "Y_COORD": -23.53151, "X_COORD": 31.44371, "NOTES___CO": "Small dam in Mooiplaas spruit", "Label": "Open", "Lable_Name": "Mooiplaas dam", "Label_Type": "Dam, earthen" }, "geometry": { "type": "Point", "coordinates": [ 31.44371, -23.53151 ] } },
{ "type": "Feature", "properties": { "NAME": "Mooiplaas Picnic Site", "TYPE": "Borehole", "RANGER_SEC": "MOO", "HOLE_DRILL": "c1980", "BOREHOLE_D": "68/6", "BOREHOLE_1": "11355", "STRUCTURES": "E", "PURPOSE": "D", "STATUS___S": "O-RO", "REHABILITA": "N/A", "LOCALITY": "6,5 km SE Mooiplaas", "Y_COORD": -23.54001, "X_COORD": 31.44215, "NOTES___CO": null, "Label": "Open", "Lable_Name": "Mooiplaas Picnic Site", "Label_Type": "Borehole" }, "geometry": { "type": "Point", "coordinates": [ 31.44215, -23.54001 ] } },
{ "type": "Feature", "properties": { "NAME": "Mooiplaas Ranger Quarters", "TYPE": "Borehole", "RANGER_SEC": "MOO", "HOLE_DRILL": "?", "BOREHOLE_D": "?", "BOREHOLE_1": "?", "STRUCTURES": "E", "PURPOSE": "D", "STATUS___S": "O-RO", "REHABILITA": "N/A", "LOCALITY": "At Mooiplaas", "Y_COORD": -23.53854, "X_COORD": 31.4405, "NOTES___CO": "At least 7 boreholes between Shiphandane & Ranger's Quarters - see file.", "Label": "Open", "Lable_Name": "Mooiplaas Ranger Quarters", "Label_Type": "Borehole" }, "geometry": { "type": "Point", "coordinates": [ 31.4405, -23.53854 ] } },
{ "type": "Feature", "properties": { "NAME": "Mopani", "TYPE": "Borehole", "RANGER_SEC": "MOO", "HOLE_DRILL": "?", "BOREHOLE_D": "?", "BOREHOLE_1": "?", "STRUCTURES": "None", "PURPOSE": "D", "STATUS___S": "O-RO", "REHABILITA": "N/A", "LOCALITY": "1 km S Mooiplaas", "Y_COORD": -23.5267, "X_COORD": 31.4, "NOTES___CO": "See Mooiplaas Ranger Quarters file.", "Label": "Open", "Lable_Name": "Mopani", "Label_Type": "Borehole" }, "geometry": { "type": "Point", "coordinates": [ 31.4, -23.5267 ] } },
{ "type": "Feature", "properties": { "NAME": "Mpondo", "TYPE": "Dam, earthen", "RANGER_SEC": "KRO", "HOLE_DRILL": "c1972", "BOREHOLE_D": "-", "BOREHOLE_1": "-", "STRUCTURES": "Wl", "PURPOSE": "W", "STATUS___S": "<20-A", "REHABILITA": "1*", "LOCALITY": "26,5 km SSE Skukuza", "Y_COORD": -25.20195, "X_COORD": 31.71681, "NOTES___CO": null, "Label": "Open", "Lable_Name": "Mpondo dam", "Label_Type": "Dam, earthen" }, "geometry": { "type": "Point", "coordinates": [ 31.71681, -25.20195 ] } },
{ "type": "Feature", "properties": { "NAME": "Muhlambamadvube No. 1", "TYPE": "Borehole No. 1 SSW-100", "RANGER_SEC": "SKZ", "HOLE_DRILL": "c1963", "BOREHOLE_D": "76/14", "BOREHOLE_1": "1363", "STRUCTURES": "WRT", "PURPOSE": "W", "STATUS___S": "<20-A", "REHABILITA": "1", "LOCALITY": "23 km S Skukuza", "Y_COORD": -25.20538, "X_COORD": 31.59445, "NOTES___CO": null, "Label": "Open", "Lable_Name": "Muhlambamadvube No. 1", "Label_Type": "Borehole" }, "geometry": { "type": "Point", "coordinates": [ 31.59445, -25.20538 ] } },
{ "type": "Feature", "properties": { "NAME": "Muhlambamadvube No. 1", "TYPE": "Borehole No. 2 SSE-150", "RANGER_SEC": "SKZ", "HOLE_DRILL": "1973", "BOREHOLE_D": "58/4", "BOREHOLE_1": "6378", "STRUCTURES": "WRT", "PURPOSE": "W", "STATUS___S": "<20-A", "REHABILITA": "1", "LOCALITY": "23 km S Skukuza", "Y_COORD": -25.20538, "X_COORD": 31.59445, "NOTES___CO": null, "Label": "Open", "Lable_Name": "Muhlambamadvube No. 1", "Label_Type": "Borehole" }, "geometry": { "type": "Point", "coordinates": [ 31.59445, -25.20538 ] } },
{ "type": "Feature", "properties": { "NAME": "Nandzana", "TYPE": "Borehole N-75", "RANGER_SEC": "PHA", "HOLE_DRILL": "c1970", "BOREHOLE_D": "30/11", "BOREHOLE_1": "13626", "STRUCTURES": "RT", "PURPOSE": "W", "STATUS___S": "O-RO", "REHABILITA": "N/A", "LOCALITY": "17,5 km NE Phalaborwa", "Y_COORD": -23.83262, "X_COORD": 31.28942, "NOTES___CO": null, "Label": "Open", "Lable_Name": "Nandzana", "Label_Type": "Borehole" }, "geometry": { "type": "Point", "coordinates": [ 31.28942, -23.83262 ] } },
{ "type": "Feature", "properties": { "NAME": "Ngotso", "TYPE": "Dam, concrete weir", "RANGER_SEC": "HOU", "HOLE_DRILL": "?", "BOREHOLE_D": "-", "BOREHOLE_1": "-", "STRUCTURES": "Wl", "PURPOSE": "W", "STATUS___S": "<20-A", "REHABILITA": "1", "LOCALITY": "5 km E Houtboschrand", "Y_COORD": -24.10367, "X_COORD": 31.7211, "NOTES___CO": null, "Label": "Open", "Lable_Name": "Ngotso dam", "Label_Type": "Dam, concrete weir" }, "geometry": { "type": "Point", "coordinates": [ 31.7211, -24.10367 ] } },
{ "type": "Feature", "properties": { "NAME": "Ngotso", "TYPE": "Dam, earthen", "RANGER_SEC": "SAT", "HOLE_DRILL": "c1964", "BOREHOLE_D": "-", "BOREHOLE_1": "-", "STRUCTURES": "Wl", "PURPOSE": "W", "STATUS___S": "<20-A", "REHABILITA": "1", "LOCALITY": "9,5 km SSE Houtboschrand", "Y_COORD": -24.17579, "X_COORD": 31.72145, "NOTES___CO": null, "Label": "Open", "Lable_Name": "Ngotso dam", "Label_Type": "Dam, earthen" }, "geometry": { "type": "Point", "coordinates": [ 31.72145, -24.17579 ] } },
{ "type": "Feature", "properties": { "NAME": "Ngotso South", "TYPE": "Pipeline trough", "RANGER_SEC": "SAT", "HOLE_DRILL": "c1971", "BOREHOLE_D": "-", "BOREHOLE_1": "-", "STRUCTURES": "-", "PURPOSE": "W", "STATUS___S": "O-RO", "REHABILITA": "N/A", "LOCALITY": "13 km SSE Houtboschrand", "Y_COORD": -24.2075, "X_COORD": 31.7206, "NOTES___CO": null, "Label": "Open", "Lable_Name": "Ngotso South trough", "Label_Type": "Pipeline trough" }, "geometry": { "type": "Point", "coordinates": [ 31.7206, -24.2075 ] } },
{ "type": "Feature", "properties": { "NAME": "Ngotso North", "TYPE": "Pipeline trough", "RANGER_SEC": "HOU", "HOLE_DRILL": "c1986", "BOREHOLE_D": "-", "BOREHOLE_1": "-", "STRUCTURES": "-", "PURPOSE": "W", "STATUS___S": "<20-A", "REHABILITA": "1", "LOCALITY": "5 km SE Houtboschrand", "Y_COORD": -24.12987, "X_COORD": 31.7074, "NOTES___CO": null, "Label": "Open", "Lable_Name": "Ngotso North trough", "Label_Type": "Pipeline trough" }, "geometry": { "type": "Point", "coordinates": [ 31.7074, -24.12987 ] } },
{ "type": "Feature", "properties": { "NAME": "Ngwenyeni", "TYPE": "Dam, concrete weir", "RANGER_SEC": "KFI", "HOLE_DRILL": "1957", "BOREHOLE_D": "-", "BOREHOLE_1": "-", "STRUCTURES": "Wl", "PURPOSE": "W", "STATUS___S": "O-RO", "REHABILITA": "N/A", "LOCALITY": "29 km SE Kingfisherspruit", "Y_COORD": -24.62104, "X_COORD": 31.67159, "NOTES___CO": null, "Label": "Open", "Lable_Name": "Ngwenyeni dam", "Label_Type": "Dam, concrete weir" }, "geometry": { "type": "Point", "coordinates": [ 31.67159, -24.62104 ] } },
{ "type": "Feature", "properties": { "NAME": "Ngwenyeni (Phalaborwa) No. 1", "TYPE": "Borehole No. 1", "RANGER_SEC": "PHA", "HOLE_DRILL": "c1935", "BOREHOLE_D": "24/6", "BOREHOLE_1": "5300", "STRUCTURES": "RT", "PURPOSE": "W", "STATUS___S": "DRT", "REHABILITA": "N/A", "LOCALITY": "12 km NNE Phalaborwa", "Y_COORD": -23.85815, "X_COORD": 31.23875, "NOTES___CO": null, "Label": "Drought", "Lable_Name": "Ngwenyeni (Phalaborwa) No. 1", "Label_Type": "Borehole" }, "geometry": { "type": "Point", "coordinates": [ 31.23875, -23.85815 ] } },
{ "type": "Feature", "properties": { "NAME": "Ngwenyeni (Phalaborwa) No. 1", "TYPE": "Borehole No. 2", "RANGER_SEC": "PHA", "HOLE_DRILL": "1983", "BOREHOLE_D": "72/7", "BOREHOLE_1": "1000", "STRUCTURES": "RT", "PURPOSE": "W", "STATUS___S": "DRT", "REHABILITA": "N/A", "LOCALITY": "12 km NNE Phalaborwa", "Y_COORD": -23.85815, "X_COORD": 31.23875, "NOTES___CO": null, "Label": "Drought", "Lable_Name": "Ngwenyeni (Phalaborwa) No. 1", "Label_Type": "Borehole" }, "geometry": { "type": "Point", "coordinates": [ 31.23875, -23.85815 ] } },
{ "type": "Feature", "properties": { "NAME": "Nhlanganini ('Winkelhaak')", "TYPE": "Dam, concrete", "RANGER_SEC": "OLI", "HOLE_DRILL": "c1968", "BOREHOLE_D": "-", "BOREHOLE_1": "-", "STRUCTURES": "Wl", "PURPOSE": "W", "STATUS___S": "O-RO", "REHABILITA": "N/A", "LOCALITY": "12 km SW Letaba", "Y_COORD": -23.93523, "X_COORD": 31.49454, "NOTES___CO": "Also known as 'Winkelhaak dam' but the correct name is Nhlanganini. Registration number: B807/42", "Label": "Open", "Lable_Name": "Nhlanganini dam ('Winkelhaak')", "Label_Type": "Dam, concrete" }, "geometry": { "type": "Point", "coordinates": [ 31.49454, -23.93523 ] } },
{ "type": "Feature", "properties": { "NAME": "Nhlangwini breeding camp", "TYPE": "Borehole", "RANGER_SEC": "PRE", "HOLE_DRILL": "1970", "BOREHOLE_D": "64/11", "BOREHOLE_1": "8176", "STRUCTURES": "WRT", "PURPOSE": "W", "STATUS___S": "O-RO", "REHABILITA": "N/A", "LOCALITY": "5 km SSE Pretoriuskop", "Y_COORD": -25.20501, "X_COORD": 31.29409, "NOTES___CO": null, "Label": "Open", "Lable_Name": "Nhlangwini breeding camp", "Label_Type": "Borehole" }, "geometry": { "type": "Point", "coordinates": [ 31.29409, -25.20501 ] } },
{ "type": "Feature", "properties": { "NAME": "Nkovakulu No. 1", "TYPE": "Borehole No. 1 E", "RANGER_SEC": "PAF", "HOLE_DRILL": "c1939", "BOREHOLE_D": "9/8", "BOREHOLE_1": "1571", "STRUCTURES": "WR2T", "PURPOSE": "W", "STATUS___S": "DRT", "REHABILITA": "N/A", "LOCALITY": "12,5 km SSW Pafuri", "Y_COORD": -22.53061, "X_COORD": 31.19058, "NOTES___CO": "Borehole No. 1 was a well.", "Label": "Drought", "Lable_Name": "Nkovakulu No. 1", "Label_Type": "Borehole" }, "geometry": { "type": "Point", "coordinates": [ 31.19058, -22.53061 ] } },
{ "type": "Feature", "properties": { "NAME": "Nkovakulu No. 1", "TYPE": "Borehole No. 2 E", "RANGER_SEC": "PAF", "HOLE_DRILL": "1971", "BOREHOLE_D": "64/7", "BOREHOLE_1": "4088", "STRUCTURES": "WR2T", "PURPOSE": "W", "STATUS___S": "DRT", "REHABILITA": "N/A", "LOCALITY": "12,5 km SSW Pafuri", "Y_COORD": -22.53061, "X_COORD": 31.19058, "NOTES___CO": null, "Label": "Drought", "Lable_Name": "Nkovakulu No. 1", "Label_Type": "Borehole" }, "geometry": { "type": "Point", "coordinates": [ 31.19058, -22.53061 ] } },
{ "type": "Feature", "properties": { "NAME": "Nsemani", "TYPE": "Dam, earthen", "RANGER_SEC": "SAT", "HOLE_DRILL": "c1979", "BOREHOLE_D": "-", "BOREHOLE_1": "-", "STRUCTURES": "Wl", "PURPOSE": "W", "STATUS___S": "O-RO", "REHABILITA": "N/A", "LOCALITY": "6 km W Satara", "Y_COORD": -24.39361, "X_COORD": 31.71945, "NOTES___CO": null, "Label": "Open", "Lable_Name": "Nsemani dam", "Label_Type": "Dam, earthen" }, "geometry": { "type": "Point", "coordinates": [ 31.71945, -24.39361 ] } },
{ "type": "Feature", "properties": { "NAME": "N'wambu No. 1", "TYPE": "Borehole No. 1 SE", "RANGER_SEC": "WOO", "HOLE_DRILL": "c1949", "BOREHOLE_D": "30/5", "BOREHOLE_1": "4466", "STRUCTURES": "WR2T", "PURPOSE": "W", "STATUS___S": "DRT", "REHABILITA": "N/A", "LOCALITY": "18 km NNW Mooiplaas", "Y_COORD": -23.37051, "X_COORD": 31.31869, "NOTES___CO": null, "Label": "Drought", "Lable_Name": "N'wambu No. 1", "Label_Type": "Borehole" }, "geometry": { "type": "Point", "coordinates": [ 31.31869, -23.37051 ] } },
{ "type": "Feature", "properties": { "NAME": "N'wambu No. 1", "TYPE": "Borehole No. 2 E", "RANGER_SEC": "WOO", "HOLE_DRILL": "1972", "BOREHOLE_D": "33/9", "BOREHOLE_1": "2369", "STRUCTURES": "WR2T", "PURPOSE": "W", "STATUS___S": "DRT", "REHABILITA": "N/A", "LOCALITY": "18 km NNW Mooiplaas", "Y_COORD": -23.37051, "X_COORD": 31.31869, "NOTES___CO": null, "Label": "Drought", "Lable_Name": "N'wambu No. 1", "Label_Type": "Borehole" }, "geometry": { "type": "Point", "coordinates": [ 31.31869, -23.37051 ] } },
{ "type": "Feature", "properties": { "NAME": "N'wanetsi", "TYPE": "Dam, concrete weir", "RANGER_SEC": "NWA", "HOLE_DRILL": "c1952", "BOREHOLE_D": "-", "BOREHOLE_1": "-", "STRUCTURES": "Wl", "PURPOSE": "W", "STATUS___S": "O-RO", "REHABILITA": "N/A", "LOCALITY": "0,5 km E Nwanetsi", "Y_COORD": -24.45389, "X_COORD": 31.98101, "NOTES___CO": null, "Label": "Open", "Lable_Name": "N'wanetsi dam", "Label_Type": "Dam, concrete weir" }, "geometry": { "type": "Point", "coordinates": [ 31.98101, -24.45389 ] } },
{ "type": "Feature", "properties": { "NAME": "N'wanetsi Letaba", "TYPE": "Borehole WSW", "RANGER_SEC": "PHA", "HOLE_DRILL": "c1969", "BOREHOLE_D": "26/9", "BOREHOLE_1": "13626", "STRUCTURES": "RT", "PURPOSE": "W", "STATUS___S": "DRT", "REHABILITA": "N/A", "LOCALITY": "16 km WSW Letaba", "Y_COORD": -23.87354, "X_COORD": 31.417454, "NOTES___CO": null, "Label": "Drought", "Lable_Name": "N'wanetsi Letaba", "Label_Type": "Borehole" }, "geometry": { "type": "Point", "coordinates": [ 31.417454, -23.87354 ] } },
{ "type": "Feature", "properties": { "NAME": "N'watimhiri", "TYPE": "Dam, earthen", "RANGER_SEC": "OSA", "HOLE_DRILL": "-", "BOREHOLE_D": "-", "BOREHOLE_1": "-", "STRUCTURES": "Wl", "PURPOSE": "W", "STATUS___S": "O-RO", "REHABILITA": "N/A", "LOCALITY": "7.5 km SE Nkuhlu picnic site", "Y_COORD": -25.05469, "X_COORD": 31.80096, "NOTES___CO": "Earthen dam with the tar road passing over the wall, in a tributary of the N'watimhiri spruit", "Label": "Open", "Lable_Name": "N'watimhiri dam", "Label_Type": "Dam, earthen" }, "geometry": { "type": "Point", "coordinates": [ 31.80096, -25.05469 ] } },
{ "type": "Feature", "properties": { "NAME": "Nyamarhi", "TYPE": "Pipeline trough", "RANGER_SEC": "HOU", "HOLE_DRILL": "c1982", "BOREHOLE_D": "-", "BOREHOLE_1": "-", "STRUCTURES": "-", "PURPOSE": "W", "STATUS___S": "<20-A", "REHABILITA": "1", "LOCALITY": "18 km S Olifants", "Y_COORD": -24.1678, "X_COORD": 31.7194, "NOTES___CO": null, "Label": "Open", "Lable_Name": "Nyamarhi trough", "Label_Type": "Pipeline trough" }, "geometry": { "type": "Point", "coordinates": [ 31.7194, -24.1678 ] } },
{ "type": "Feature", "properties": { "NAME": "Nyamundwa", "TYPE": "Dam, earthen", "RANGER_SEC": "PRE", "HOLE_DRILL": "c1971", "BOREHOLE_D": "-", "BOREHOLE_1": "-", "STRUCTURES": "Wl", "PURPOSE": "W", "STATUS___S": "<20-A", "REHABILITA": "1*", "LOCALITY": "17,5 km NNE Pretoriuskop", "Y_COORD": -25.02574, "X_COORD": 31.33416, "NOTES___CO": "Registration number: X301/99", "Label": "Open", "Lable_Name": "Nyamundwa dam", "Label_Type": "Dam, earthen" }, "geometry": { "type": "Point", "coordinates": [ 31.33416, -25.02574 ] } },
{ "type": "Feature", "properties": { "NAME": "Opsaal", "TYPE": "Borehole", "RANGER_SEC": "PAF", "HOLE_DRILL": "1975", "BOREHOLE_D": "21/4", "BOREHOLE_1": "18925", "STRUCTURES": "None", "PURPOSE": "W", "STATUS___S": "O-RO", "REHABILITA": "N/A", "LOCALITY": "23 km S Pafuri", "Y_COORD": -22.62333, "X_COORD": 31.1759, "NOTES___CO": null, "Label": "Open", "Lable_Name": "Opsaal", "Label_Type": "Borehole" }, "geometry": { "type": "Point", "coordinates": [ 31.1759, -22.62333 ] } },
{ "type": "Feature", "properties": { "NAME": "Orpen", "TYPE": "Borehole", "RANGER_SEC": "KFI", "HOLE_DRILL": "1954", "BOREHOLE_D": "41/12", "BOREHOLE_1": "13626", "STRUCTURES": "None", "PURPOSE": "D", "STATUS___S": "O-RO", "REHABILITA": "N/A", "LOCALITY": "4 km ENE Kingfisherspruit", "Y_COORD": -24.4714, "X_COORD": 31.393, "NOTES___CO": null, "Label": "Open", "Lable_Name": "Orpen", "Label_Type": "Borehole" }, "geometry": { "type": "Point", "coordinates": [ 31.393, -24.4714 ] } },
{ "type": "Feature", "properties": { "NAME": "Orpen", "TYPE": "Dam, concrete", "RANGER_SEC": "TSH", "HOLE_DRILL": "c1944", "BOREHOLE_D": "-", "BOREHOLE_1": "-", "STRUCTURES": "Wl", "PURPOSE": "W", "STATUS___S": "O-RO", "REHABILITA": "N/A", "LOCALITY": "4,5 km E Tshokwane", "Y_COORD": -24.79243, "X_COORD": 31.90005, "NOTES___CO": null, "Label": "Open", "Lable_Name": "Orpen dam", "Label_Type": "Dam, concrete" }, "geometry": { "type": "Point", "coordinates": [ 31.90005, -24.79243 ] } },
{ "type": "Feature", "properties": { "NAME": "Pafuri Ranger Quarters No. 1", "TYPE": "Borehole No. 1", "RANGER_SEC": "PAF", "HOLE_DRILL": "1972", "BOREHOLE_D": "33/-", "BOREHOLE_1": "18925", "STRUCTURES": "D", "PURPOSE": "D", "STATUS___S": "O-RO", "REHABILITA": "N/A", "LOCALITY": "Previous ranger post, now a concession guest-house called \"Maleteni\"", "Y_COORD": -22.41927, "X_COORD": 31.20982, "NOTES___CO": "Now taken over by concession.", "Label": "Open", "Lable_Name": "Pafuri Ranger Quarters No. 1", "Label_Type": "Borehole" }, "geometry": { "type": "Point", "coordinates": [ 31.20982, -22.41927 ] } },
{ "type": "Feature", "properties": { "NAME": "Pafuri Ranger Quarters No. 1", "TYPE": "Borehole No. 2", "RANGER_SEC": "PAF", "HOLE_DRILL": "1989", "BOREHOLE_D": "25/8", "BOREHOLE_1": "14000", "STRUCTURES": "D", "PURPOSE": "D", "STATUS___S": "O-RO", "REHABILITA": "N/A", "LOCALITY": "Previous ranger post, now a concession guest-house called \"Maleteni\"", "Y_COORD": -22.41927, "X_COORD": 31.20982, "NOTES___CO": "Now taken over by concession.", "Label": "Open", "Lable_Name": "Pafuri Ranger Quarters No. 1", "Label_Type": "Borehole" }, "geometry": { "type": "Point", "coordinates": [ 31.20982, -22.41927 ] } },
{ "type": "Feature", "properties": { "NAME": "Piet Grobler", "TYPE": "Dam, concrete", "RANGER_SEC": "HOU", "HOLE_DRILL": "1988", "BOREHOLE_D": "-", "BOREHOLE_1": "-", "STRUCTURES": "Wl", "PURPOSE": "W", "STATUS___S": "O-RO", "REHABILITA": "N/A", "LOCALITY": "14,5 km SSW Houtboschrand", "Y_COORD": -24.23278, "X_COORD": 31.63333, "NOTES___CO": "Registration number: B707/28", "Label": "Open", "Lable_Name": "Piet Grobler dam", "Label_Type": "Dam, concrete" }, "geometry": { "type": "Point", "coordinates": [ 31.63333, -24.23278 ] } },
{ "type": "Feature", "properties": { "NAME": "Pionier", "TYPE": "Dam, concrete", "RANGER_SEC": "MOO", "HOLE_DRILL": "c1977", "BOREHOLE_D": "-", "BOREHOLE_1": "-", "STRUCTURES": "Wl", "PURPOSE": "W", "STATUS___S": "O-RO", "REHABILITA": "N/A", "LOCALITY": "1 km S Mooiplaas", "Y_COORD": -23.52389, "X_COORD": 31.39252, "NOTES___CO": null, "Label": "Open", "Lable_Name": "Pionier dam", "Label_Type": "Dam, concrete" }, "geometry": { "type": "Point", "coordinates": [ 31.39252, -23.52389 ] } },
{ "type": "Feature", "properties": { "NAME": "Punda Maria Gate No. 1", "TYPE": "Borehole No. 1", "RANGER_SEC": "PUN", "HOLE_DRILL": "1972", "BOREHOLE_D": "49/20", "BOREHOLE_1": "568", "STRUCTURES": "S", "PURPOSE": "D", "STATUS___S": "O-RO", "REHABILITA": "N/A", "LOCALITY": "4 km S Punda Maria", "Y_COORD": -22.73857, "X_COORD": 31.01041, "NOTES___CO": "SE of reception building", "Label": "Open", "Lable_Name": "Punda Maria Gate No. 1", "Label_Type": "Borehole" }, "geometry": { "type": "Point", "coordinates": [ 31.01041, -22.73857 ] } },
{ "type": "Feature", "properties": { "NAME": "Punda Maria Gate No. 1", "TYPE": "Borehole No. 2", "RANGER_SEC": "PUN", "HOLE_DRILL": "1984", "BOREHOLE_D": "72/32", "BOREHOLE_1": "7100", "STRUCTURES": "SW", "PURPOSE": "D", "STATUS___S": "O-RO", "REHABILITA": "N/A", "LOCALITY": "4 km S Punda Maria", "Y_COORD": -22.73857, "X_COORD": 31.01041, "NOTES___CO": "200 m E of Tula Mila turnoff, northern side of tar road.", "Label": "Open", "Lable_Name": "Punda Maria Gate No. 1", "Label_Type": "Borehole" }, "geometry": { "type": "Point", "coordinates": [ 31.01041, -22.73857 ] } },
{ "type": "Feature", "properties": { "NAME": "Punda Marial personnel quarters No. 1", "TYPE": "Borehole No. 1", "RANGER_SEC": "PUN", "HOLE_DRILL": "1975", "BOREHOLE_D": "38/10", "BOREHOLE_1": "9840", "STRUCTURES": "None", "PURPOSE": "D", "STATUS___S": "O-RO", "REHABILITA": "N/A", "LOCALITY": "Punda Maria rest camp", "Y_COORD": -22.69193, "X_COORD": 31.02373, "NOTES___CO": "Southern side of tar road to rest camp, outside main gate.", "Label": "Open", "Lable_Name": "Punda Marial personnel quarters No. 1", "Label_Type": "Borehole" }, "geometry": { "type": "Point", "coordinates": [ 31.02373, -22.69193 ] } },
{ "type": "Feature", "properties": { "NAME": "Punda Marial personnel quarters No. 1", "TYPE": "Borehole No. 2", "RANGER_SEC": "PUN", "HOLE_DRILL": "1987", "BOREHOLE_D": "85/15", "BOREHOLE_1": "?", "STRUCTURES": "None", "PURPOSE": "D", "STATUS___S": "O-RO", "REHABILITA": "N/A", "LOCALITY": "Punda Maria rest camp", "Y_COORD": -22.69193, "X_COORD": 31.02373, "NOTES___CO": "Eastern side of road in staff village.", "Label": "Open", "Lable_Name": "Punda Marial personnel quarters No. 1", "Label_Type": "Borehole" }, "geometry": { "type": "Point", "coordinates": [ 31.02373, -22.69193 ] } },
{ "type": "Feature", "properties": { "NAME": "Punda Maria rest camp No. 1", "TYPE": "Borehole No. 1", "RANGER_SEC": "PUN", "HOLE_DRILL": "1975", "BOREHOLE_D": "39/4", "BOREHOLE_1": "34065", "STRUCTURES": "E", "PURPOSE": "D", "STATUS___S": "O-RO", "REHABILITA": "N/A", "LOCALITY": "Punda Maria rest camp", "Y_COORD": -22.7347, "X_COORD": 31.01172, "NOTES___CO": "Outside main camp gate on hill side of road to Ranger Quarters.", "Label": "Open", "Lable_Name": "Punda Maria rest camp No. 1", "Label_Type": "Borehole" }, "geometry": { "type": "Point", "coordinates": [ 31.01172, -22.7347 ] } },
{ "type": "Feature", "properties": { "NAME": "Punda Maria rest camp No. 1", "TYPE": "Borehole No. 2", "RANGER_SEC": "PUN", "HOLE_DRILL": "1983", "BOREHOLE_D": "28/7", "BOREHOLE_1": "?", "STRUCTURES": "E", "PURPOSE": "D", "STATUS___S": "O-RO", "REHABILITA": "N/A", "LOCALITY": "Punda Maria rest camp", "Y_COORD": -22.7347, "X_COORD": 31.01172, "NOTES___CO": "Between main camp gate and filling station.", "Label": "Open", "Lable_Name": "Punda Maria rest camp No. 1", "Label_Type": "Borehole" }, "geometry": { "type": "Point", "coordinates": [ 31.01172, -22.7347 ] } },
{ "type": "Feature", "properties": { "NAME": "Punda Maria rest camp No. 1", "TYPE": "Borehole No. 3", "RANGER_SEC": "PUN", "HOLE_DRILL": "1983", "BOREHOLE_D": "42/14", "BOREHOLE_1": "2700", "STRUCTURES": "None", "PURPOSE": "D", "STATUS___S": "O-RO", "REHABILITA": "N/A", "LOCALITY": "Punda Maria rest camp", "Y_COORD": -22.7347, "X_COORD": 31.01172, "NOTES___CO": "Eastern side of road on the opposite old power station & helicopter pad", "Label": "Open", "Lable_Name": "Punda Maria rest camp No. 1", "Label_Type": "Borehole" }, "geometry": { "type": "Point", "coordinates": [ 31.01172, -22.7347 ] } },
{ "type": "Feature", "properties": { "NAME": "Red Rocks", "TYPE": "Borehole", "RANGER_SEC": "WOO", "HOLE_DRILL": "1975", "BOREHOLE_D": "49/10", "BOREHOLE_1": "20439", "STRUCTURES": "WRT", "PURPOSE": "W", "STATUS___S": "O-RO", "REHABILITA": "N/A", "LOCALITY": "16 km SW Shingwedzi", "Y_COORD": -23.18171, "X_COORD": 31.29358, "NOTES___CO": null, "Label": "Open", "Lable_Name": "Red Rocks", "Label_Type": "Borehole" }, "geometry": { "type": "Point", "coordinates": [ 31.29358, -23.18171 ] } },
{ "type": "Feature", "properties": { "NAME": "Renoster Pan", "TYPE": "Borehole", "RANGER_SEC": "MAL", "HOLE_DRILL": "1976", "BOREHOLE_D": "47/10", "BOREHOLE_1": "11355", "STRUCTURES": "SRT", "PURPOSE": "W", "STATUS___S": "DRT", "REHABILITA": "N/A", "LOCALITY": "11,5 km E Stolsnek", "Y_COORD": -25.32471, "X_COORD": 31.51185, "NOTES___CO": null, "Label": "Drought", "Lable_Name": "Renoster Pan", "Label_Type": "Borehole" }, "geometry": { "type": "Point", "coordinates": [ 31.51185, -25.32471 ] } },
{ "type": "Feature", "properties": { "NAME": "Roodewal", "TYPE": "Borehole S", "RANGER_SEC": "HOU", "HOLE_DRILL": "1983", "BOREHOLE_D": "-/-", "BOREHOLE_1": "-", "STRUCTURES": "STR", "PURPOSE": "D", "STATUS___S": "O-RO", "REHABILITA": "N/A", "LOCALITY": "6 km SW Houtboschrand", "Y_COORD": -24.14307, "X_COORD": 31.63462, "NOTES___CO": "Located next to Roodewal Camp. Reservoir and trough for game supplied from this borehole", "Label": "Open", "Lable_Name": "Roodewal", "Label_Type": "Borehole" }, "geometry": { "type": "Point", "coordinates": [ 31.63462, -24.14307 ] } },
{ "type": "Feature", "properties": { "NAME": "Sable", "TYPE": "Dam, earthen", "RANGER_SEC": "PHA", "HOLE_DRILL": "c1973", "BOREHOLE_D": "-", "BOREHOLE_1": "-", "STRUCTURES": "Wl", "PURPOSE": "W", "STATUS___S": "O-RO", "REHABILITA": "N/A", "LOCALITY": "7,5 km E Phalaborwa", "Y_COORD": -23.93908, "X_COORD": 31.23722, "NOTES___CO": "Registration number: B706/33", "Label": "Open", "Lable_Name": "Sable dam", "Label_Type": "Dam, earthen" }, "geometry": { "type": "Point", "coordinates": [ 31.23722, -23.93908 ] } },
{ "type": "Feature", "properties": { "NAME": "Sable Hide", "TYPE": "Borehole", "RANGER_SEC": "PHA", "HOLE_DRILL": "?", "BOREHOLE_D": "?", "BOREHOLE_1": "?", "STRUCTURES": "?", "PURPOSE": "D", "STATUS___S": "O-RO", "REHABILITA": "N/A", "LOCALITY": "7,5 km E Phalaborwa", "Y_COORD": -23.93467, "X_COORD": 31.23862, "NOTES___CO": "No other information found; no file.", "Label": "Open", "Lable_Name": "Sable Hide", "Label_Type": "Borehole" }, "geometry": { "type": "Point", "coordinates": [ 31.23862, -23.93467 ] } },
{ "type": "Feature", "properties": { "NAME": "Samevloeiing", "TYPE": "Borehole", "RANGER_SEC": "PAF", "HOLE_DRILL": "1966", "BOREHOLE_D": "27/5", "BOREHOLE_1": "14989", "STRUCTURES": "?", "PURPOSE": "D", "STATUS___S": "O-RO", "REHABILITA": "N/A", "LOCALITY": "9,5 km E Pafuri", "Y_COORD": -22.42404, "X_COORD": 31.30389, "NOTES___CO": "Rangers cannot locate this borehole. It is suspected that the borehole has been covered over by sediment deposited during floods.", "Label": "Open", "Lable_Name": "Samevloeiing", "Label_Type": "Borehole" }, "geometry": { "type": "Point", "coordinates": [ 31.30389, -22.42404 ] } },
{ "type": "Feature", "properties": { "NAME": "Sand River bush camp", "TYPE": "Borehole", "RANGER_SEC": "TSH", "HOLE_DRILL": "1987", "BOREHOLE_D": "55/-", "BOREHOLE_1": "1137", "STRUCTURES": "S", "PURPOSE": "D", "STATUS___S": "O-RO", "REHABILITA": "N/A", "LOCALITY": "11 km ENE Skukuza", "Y_COORD": -24.94883, "X_COORD": 31.68403, "NOTES___CO": null, "Label": "Open", "Lable_Name": "Sand River bush camp", "Label_Type": "Borehole" }, "geometry": { "type": "Point", "coordinates": [ 31.68403, -24.94883 ] } },
{ "type": "Feature", "properties": { "NAME": "Sand River military base No. 1", "TYPE": "Borehole No. 1", "RANGER_SEC": "TSH", "HOLE_DRILL": "1990", "BOREHOLE_D": "70/6", "BOREHOLE_1": "4500", "STRUCTURES": "?", "PURPOSE": "D", "STATUS___S": "O-RO", "REHABILITA": "N/A", "LOCALITY": "5 km NNE Skukuza", "Y_COORD": -24.94674, "X_COORD": 31.68294, "NOTES___CO": null, "Label": "Open", "Lable_Name": "Sand River military base No. 1", "Label_Type": "Borehole" }, "geometry": { "type": "Point", "coordinates": [ 31.68294, -24.94674 ] } },
{ "type": "Feature", "properties": { "NAME": "Sand River military base No. 1", "TYPE": "Borehole No. 2", "RANGER_SEC": "TSH", "HOLE_DRILL": "1990", "BOREHOLE_D": "50/7", "BOREHOLE_1": "4500", "STRUCTURES": "?", "PURPOSE": "D", "STATUS___S": "O-RO", "REHABILITA": "N/A", "LOCALITY": "5 km NNE Skukuza", "Y_COORD": -24.94674, "X_COORD": 31.68294, "NOTES___CO": null, "Label": "Open", "Lable_Name": "Sand River military base No. 1", "Label_Type": "Borehole" }, "geometry": { "type": "Point", "coordinates": [ 31.68294, -24.94674 ] } },
{ "type": "Feature", "properties": { "NAME": "Sandpiper", "TYPE": "Borehole", "RANGER_SEC": "WOO", "HOLE_DRILL": "1973", "BOREHOLE_D": "42/12", "BOREHOLE_1": "24527", "STRUCTURES": "WRT", "PURPOSE": "W", "STATUS___S": "O-RO", "REHABILITA": "N/A", "LOCALITY": "24,5 km NNE Woodlands", "Y_COORD": -23.02046, "X_COORD": 31.31581, "NOTES___CO": null, "Label": "Open", "Lable_Name": "Sandpiper", "Label_Type": "Borehole" }, "geometry": { "type": "Point", "coordinates": [ 31.31581, -23.02046 ] } },
{ "type": "Feature", "properties": { "NAME": "Satara No. 1", "TYPE": "Borehole No. 1", "RANGER_SEC": "SAT", "HOLE_DRILL": "?", "BOREHOLE_D": "30/4", "BOREHOLE_1": "37850", "STRUCTURES": "None", "PURPOSE": "D", "STATUS___S": "O-RO", "REHABILITA": "N/A", "LOCALITY": "Satara", "Y_COORD": -24.39778, "X_COORD": 31.77833, "NOTES___CO": "Also see file.", "Label": "Open", "Lable_Name": "Satara No. 1", "Label_Type": "Borehole" }, "geometry": { "type": "Point", "coordinates": [ 31.77833, -24.39778 ] } },
{ "type": "Feature", "properties": { "NAME": "Satara No. 1", "TYPE": "Borehole No. 2", "RANGER_SEC": "SAT", "HOLE_DRILL": "?", "BOREHOLE_D": "41/17", "BOREHOLE_1": "15000", "STRUCTURES": "None", "PURPOSE": "D", "STATUS___S": "O-RO", "REHABILITA": "N/A", "LOCALITY": "Satara", "Y_COORD": -24.39778, "X_COORD": 31.77833, "NOTES___CO": "Also see file.", "Label": "Open", "Lable_Name": "Satara No. 1", "Label_Type": "Borehole" }, "geometry": { "type": "Point", "coordinates": [ 31.77833, -24.39778 ] } },
{ "type": "Feature", "properties": { "NAME": "Satara No. 1", "TYPE": "Borehole No. 3", "RANGER_SEC": "SAT", "HOLE_DRILL": "?", "BOREHOLE_D": "66/6", "BOREHOLE_1": "7000", "STRUCTURES": "None", "PURPOSE": "D", "STATUS___S": "O-RO", "REHABILITA": "N/A", "LOCALITY": "Satara", "Y_COORD": -24.39778, "X_COORD": 31.77833, "NOTES___CO": "Also see file.", "Label": "Open", "Lable_Name": "Satara No. 1", "Label_Type": "Borehole" }, "geometry": { "type": "Point", "coordinates": [ 31.77833, -24.39778 ] } },
{ "type": "Feature", "properties": { "NAME": "Satara trough (East)", "TYPE": "Pipeline trough", "RANGER_SEC": "SAT", "HOLE_DRILL": "-", "BOREHOLE_D": "-", "BOREHOLE_1": "-", "STRUCTURES": "T", "PURPOSE": "W", "STATUS___S": "O-RO", "REHABILITA": "N/A", "LOCALITY": "Eastern side of Satara camp", "Y_COORD": -24.393565, "X_COORD": 31.780721, "NOTES___CO": "Fed off the Olifants-Satara pipeline", "Label": "Open", "Lable_Name": "Satara trough (East)", "Label_Type": "Pipeline trough" }, "geometry": { "type": "Point", "coordinates": [ 31.780721, -24.393565 ] } },
{ "type": "Feature", "properties": { "NAME": "Satara trough (North)", "TYPE": "Pipeline trough", "RANGER_SEC": "SAT", "HOLE_DRILL": "-", "BOREHOLE_D": "-", "BOREHOLE_1": "-", "STRUCTURES": "T", "PURPOSE": "W", "STATUS___S": "O-RO", "REHABILITA": "N/A", "LOCALITY": "North-western side of Satara camp", "Y_COORD": -24.391015, "X_COORD": 31.776221, "NOTES___CO": "Fed off the Olifants-Satara pipeline", "Label": "Open", "Lable_Name": "Satara trough (North)", "Label_Type": "Pipeline trough" }, "geometry": { "type": "Point", "coordinates": [ 31.776221, -24.391015 ] } },
{ "type": "Feature", "properties": { "NAME": "Shibotwana No. 1", "TYPE": "Borehole No. 1", "RANGER_SEC": "SAT", "HOLE_DRILL": "1971", "BOREHOLE_D": "80/10", "BOREHOLE_1": "992", "STRUCTURES": "SWRT", "PURPOSE": "W", "STATUS___S": "DRT", "REHABILITA": "N/A", "LOCALITY": "7 km E Satara", "Y_COORD": -24.39305, "X_COORD": 31.84702, "NOTES___CO": null, "Label": "Drought", "Lable_Name": "Shibotwana No. 1", "Label_Type": "Borehole" }, "geometry": { "type": "Point", "coordinates": [ 31.84702, -24.39305 ] } },
{ "type": "Feature", "properties": { "NAME": "Shibotwana No. 1", "TYPE": "Borehole No. 2", "RANGER_SEC": "SAT", "HOLE_DRILL": "1975", "BOREHOLE_D": "31/7", "BOREHOLE_1": "8013", "STRUCTURES": "SWRT", "PURPOSE": "W", "STATUS___S": "DRT", "REHABILITA": "N/A", "LOCALITY": "7 km E Satara", "Y_COORD": -24.39305, "X_COORD": 31.84702, "NOTES___CO": null, "Label": "Drought", "Lable_Name": "Shibotwana No. 1", "Label_Type": "Borehole" }, "geometry": { "type": "Point", "coordinates": [ 31.84702, -24.39305 ] } },
{ "type": "Feature", "properties": { "NAME": "Shidakeni", "TYPE": "Borehole", "RANGER_SEC": "LET", "HOLE_DRILL": "1970", "BOREHOLE_D": "38/21", "BOREHOLE_1": "3407", "STRUCTURES": "DS", "PURPOSE": "D", "STATUS___S": "O-RO", "REHABILITA": "2", "LOCALITY": "29,5 km SE Mooiplaas", "Y_COORD": -23.6671, "X_COORD": 31.63823, "NOTES___CO": "Only used for domestic purposes by Giriyondo Border Post staff.", "Label": "Open", "Lable_Name": "Shidakeni", "Label_Type": "Borehole" }, "geometry": { "type": "Point", "coordinates": [ 31.63823, -23.6671 ] } },
{ "type": "Feature", "properties": { "NAME": "Shimangwaneni", "TYPE": "Dam, earthen", "RANGER_SEC": "KFI", "HOLE_DRILL": "1962", "BOREHOLE_D": "-", "BOREHOLE_1": "-", "STRUCTURES": "Wl", "PURPOSE": "W", "STATUS___S": "<20-A", "REHABILITA": "1", "LOCALITY": "20 km ESE Kingfisherspruit", "Y_COORD": -24.50352, "X_COORD": 31.63896, "NOTES___CO": null, "Label": "Open", "Lable_Name": "Shimangwaneni dam", "Label_Type": "Dam, earthen" }, "geometry": { "type": "Point", "coordinates": [ 31.63896, -24.50352 ] } },
{ "type": "Feature", "properties": { "NAME": "Shingwedzi rest camp No. 1", "TYPE": "Borehole No. 1", "RANGER_SEC": "SHI", "HOLE_DRILL": "1989", "BOREHOLE_D": "131/12", "BOREHOLE_1": "12000", "STRUCTURES": "None", "PURPOSE": "D", "STATUS___S": "O-RO", "REHABILITA": "N/A", "LOCALITY": "Shingwedzi", "Y_COORD": -23.10765, "X_COORD": 31.43412, "NOTES___CO": null, "Label": "Open", "Lable_Name": "Shingwedzi rest camp No. 1", "Label_Type": "Borehole" }, "geometry": { "type": "Point", "coordinates": [ 31.43412, -23.10765 ] } },
{ "type": "Feature", "properties": { "NAME": "Shingwedzi rest camp No. 1", "TYPE": "Borehole No. 2", "RANGER_SEC": "SHI", "HOLE_DRILL": "1989", "BOREHOLE_D": "102/9", "BOREHOLE_1": "4000", "STRUCTURES": "None", "PURPOSE": "D", "STATUS___S": "O-RO", "REHABILITA": "N/A", "LOCALITY": "Shingwedzi", "Y_COORD": -23.10765, "X_COORD": 31.43412, "NOTES___CO": null, "Label": "Open", "Lable_Name": "Shingwedzi rest camp No. 1", "Label_Type": "Borehole" }, "geometry": { "type": "Point", "coordinates": [ 31.43412, -23.10765 ] } },
{ "type": "Feature", "properties": { "NAME": "Shingwedzi rest camp No. 1", "TYPE": "Borehole No. 3", "RANGER_SEC": "SHI", "HOLE_DRILL": "1989", "BOREHOLE_D": "120/9", "BOREHOLE_1": "10000", "STRUCTURES": "None", "PURPOSE": "D", "STATUS___S": "O-RO", "REHABILITA": "N/A", "LOCALITY": "Shingwedzi", "Y_COORD": -23.10765, "X_COORD": 31.43412, "NOTES___CO": null, "Label": "Open", "Lable_Name": "Shingwedzi rest camp No. 1", "Label_Type": "Borehole" }, "geometry": { "type": "Point", "coordinates": [ 31.43412, -23.10765 ] } },
{ "type": "Feature", "properties": { "NAME": "Shipandani", "TYPE": "Borehole", "RANGER_SEC": "MAH", "HOLE_DRILL": "1982", "BOREHOLE_D": "9/-", "BOREHOLE_1": "5678", "STRUCTURES": "D", "PURPOSE": "D-Ws", "STATUS___S": "O-RO", "REHABILITA": "N/A", "LOCALITY": "2 km SSE Mooiplaas", "Y_COORD": -23.5336, "X_COORD": 31.4092, "NOTES___CO": null, "Label": "Open", "Lable_Name": "Shipandani", "Label_Type": "Borehole" }, "geometry": { "type": "Point", "coordinates": [ 31.4092, -23.5336 ] } },
{ "type": "Feature", "properties": { "NAME": "Shiphampanane", "TYPE": "Borehole", "RANGER_SEC": "SKZ", "HOLE_DRILL": "1964", "BOREHOLE_D": "23/15", "BOREHOLE_1": "3028", "STRUCTURES": "WRT", "PURPOSE": "W", "STATUS___S": "O-RO", "REHABILITA": "N/A", "LOCALITY": "17,5 km SSW Skukuza", "Y_COORD": -25.12351, "X_COORD": 31.4897, "NOTES___CO": null, "Label": "Open", "Lable_Name": "Shiphampanane", "Label_Type": "Borehole" }, "geometry": { "type": "Point", "coordinates": [ 31.4897, -25.12351 ] } },
{ "type": "Feature", "properties": { "NAME": "Shisha", "TYPE": "Dam, concrete weir", "RANGER_SEC": "VLA", "HOLE_DRILL": "c1962", "BOREHOLE_D": "-", "BOREHOLE_1": "-", "STRUCTURES": "Wl", "PURPOSE": "W", "STATUS___S": "O-RO", "REHABILITA": "N/A", "LOCALITY": "3,5 km NNE Vlakteplaas", "Y_COORD": -22.84222, "X_COORD": 31.23903, "NOTES___CO": null, "Label": "Open", "Lable_Name": "Shisha dam", "Label_Type": "Dam, concrete weir" }, "geometry": { "type": "Point", "coordinates": [ 31.23903, -22.84222 ] } },
{ "type": "Feature", "properties": { "NAME": "Shitlhave", "TYPE": "Dam, earthen", "RANGER_SEC": "PRE", "HOLE_DRILL": "c1965", "BOREHOLE_D": "-", "BOREHOLE_1": "-", "STRUCTURES": "Wl", "PURPOSE": "W", "STATUS___S": "<20-A", "REHABILITA": "1", "LOCALITY": "6 km ENE Pretoriuskop", "Y_COORD": -25.14517, "X_COORD": 31.32519, "NOTES___CO": null, "Label": "Open", "Lable_Name": "Shitlhave dam", "Label_Type": "Dam, earthen" }, "geometry": { "type": "Point", "coordinates": [ 31.32519, -25.14517 ] } },
{ "type": "Feature", "properties": { "NAME": "Silwervis", "TYPE": "Dam, concrete", "RANGER_SEC": "WOO", "HOLE_DRILL": "c1982", "BOREHOLE_D": "-", "BOREHOLE_1": "-", "STRUCTURES": "Wl", "PURPOSE": "W", "STATUS___S": "O-RO", "REHABILITA": "N/A", "LOCALITY": "1 km ESE Woodlands", "Y_COORD": -23.21889, "X_COORD": 31.22333, "NOTES___CO": "Registration number: B901/03", "Label": "Open", "Lable_Name": "Silwervis dam", "Label_Type": "Dam, concrete" }, "geometry": { "type": "Point", "coordinates": [ 31.22333, -23.21889 ] } },
{ "type": "Feature", "properties": { "NAME": "Stapel Kop", "TYPE": "Dam, earthen", "RANGER_SEC": "MAH", "HOLE_DRILL": "c1977", "BOREHOLE_D": "-", "BOREHOLE_1": "-", "STRUCTURES": "Wl", "PURPOSE": "W", "STATUS___S": "<20-A", "REHABILITA": "1", "LOCALITY": "17,5 km SW Mooiplaas", "Y_COORD": -23.59353, "X_COORD": 31.25191, "NOTES___CO": null, "Label": "Open", "Lable_Name": "Stapel Kop dam", "Label_Type": "Dam, earthen" }, "geometry": { "type": "Point", "coordinates": [ 31.25191, -23.59353 ] } },
{ "type": "Feature", "properties": { "NAME": "Sunset Dam", "TYPE": "Dam, earthen", "RANGER_SEC": "OSA", "HOLE_DRILL": "1992", "BOREHOLE_D": "-", "BOREHOLE_1": "-", "STRUCTURES": "Wl", "PURPOSE": "W", "STATUS___S": "O-RO", "REHABILITA": "N/A", "LOCALITY": "0,5 km NW Lower Sabie", "Y_COORD": -25.11735, "X_COORD": 31.91149, "NOTES___CO": "Emergency earthen dam, Lower Sabie.", "Label": "Open", "Lable_Name": "Sunset Dam", "Label_Type": "Dam, earthen" }, "geometry": { "type": "Point", "coordinates": [ 31.91149, -25.11735 ] } },
{ "type": "Feature", "properties": { "NAME": "Talamati No. 1", "TYPE": "Borehole No. 1 N", "RANGER_SEC": "KFI", "HOLE_DRILL": "1962", "BOREHOLE_D": "47/25", "BOREHOLE_1": "7721", "STRUCTURES": "D", "PURPOSE": "W", "STATUS___S": "DRT", "REHABILITA": "N/A", "LOCALITY": "15 km SE Kingfisherspruit", "Y_COORD": -24.55623, "X_COORD": 31.55492, "NOTES___CO": null, "Label": "Drought", "Lable_Name": "Talamati No. 1", "Label_Type": "Borehole" }, "geometry": { "type": "Point", "coordinates": [ 31.55492, -24.55623 ] } },
{ "type": "Feature", "properties": { "NAME": "Talamati No. 1", "TYPE": "Borehole No. 2 W", "RANGER_SEC": "KFI", "HOLE_DRILL": "1976", "BOREHOLE_D": "66/23", "BOREHOLE_1": "19462", "STRUCTURES": "ER2T", "PURPOSE": "W", "STATUS___S": "DRT", "REHABILITA": "N/A", "LOCALITY": "15 km SE Kingfisherspruit", "Y_COORD": -24.55623, "X_COORD": 31.55492, "NOTES___CO": null, "Label": "Drought", "Lable_Name": "Talamati No. 1", "Label_Type": "Borehole" }, "geometry": { "type": "Point", "coordinates": [ 31.55492, -24.55623 ] } },
{ "type": "Feature", "properties": { "NAME": "Tihongonyeni", "TYPE": "Borehole E-48", "RANGER_SEC": "MOO", "HOLE_DRILL": "c1962", "BOREHOLE_D": "41/18", "BOREHOLE_1": "7570", "STRUCTURES": "WRT", "PURPOSE": "W-TS", "STATUS___S": "<20TS-A", "REHABILITA": "2", "LOCALITY": "10 km NE Mooiplaas", "Y_COORD": -23.43857, "X_COORD": 31.44761, "NOTES___CO": null, "Label": "Open", "Lable_Name": "Tihongonyeni", "Label_Type": "Borehole" }, "geometry": { "type": "Point", "coordinates": [ 31.44761, -23.43857 ] } },
{ "type": "Feature", "properties": { "NAME": "Transport (Vervoer)", "TYPE": "Dam, earthen", "RANGER_SEC": "SKZ", "HOLE_DRILL": "c1971", "BOREHOLE_D": "-", "BOREHOLE_1": "-", "STRUCTURES": "Wl", "PURPOSE": "W", "STATUS___S": "<20-A", "REHABILITA": "1*", "LOCALITY": "17 km SW Skukuza", "Y_COORD": -25.11842, "X_COORD": 31.49246, "NOTES___CO": "Also known as 'Vervoer dam'.", "Label": "Open", "Lable_Name": "Transport dam (Vervoer)", "Label_Type": "Dam, earthen" }, "geometry": { "type": "Point", "coordinates": [ 31.49246, -25.11842 ] } },
{ "type": "Feature", "properties": { "NAME": "Tsale No. 1", "TYPE": "Borehole No. 1 N", "RANGER_SEC": "MAH", "HOLE_DRILL": "c1963", "BOREHOLE_D": "24/8", "BOREHOLE_1": "7786", "STRUCTURES": "WRT", "PURPOSE": "W", "STATUS___S": "DRT", "REHABILITA": "N/A", "LOCALITY": "16 km SSW Mooiplaas", "Y_COORD": -23.65928, "X_COORD": 31.36358, "NOTES___CO": null, "Label": "Drought", "Lable_Name": "Tsale No. 1", "Label_Type": "Borehole" }, "geometry": { "type": "Point", "coordinates": [ 31.36358, -23.65928 ] } },
{ "type": "Feature", "properties": { "NAME": "Tsale No. 1", "TYPE": "Borehole No. 2 S", "RANGER_SEC": "MAH", "HOLE_DRILL": "c1963", "BOREHOLE_D": "15/6", "BOREHOLE_1": "25000", "STRUCTURES": "WRT", "PURPOSE": "W", "STATUS___S": "DRT", "REHABILITA": "N/A", "LOCALITY": "16 km SSW Mooiplaas", "Y_COORD": -23.65928, "X_COORD": 31.36358, "NOTES___CO": null, "Label": "Drought", "Lable_Name": "Tsale No. 1", "Label_Type": "Borehole" }, "geometry": { "type": "Point", "coordinates": [ 31.36358, -23.65928 ] } },
{ "type": "Feature", "properties": { "NAME": "Twanana", "TYPE": "Borehole", "RANGER_SEC": "MOO", "HOLE_DRILL": "c1989", "BOREHOLE_D": "47/4", "BOREHOLE_1": "6800", "STRUCTURES": "WRT", "PURPOSE": "D", "STATUS___S": "O-RO", "REHABILITA": "N/A", "LOCALITY": "2 km WSW Mooiplaas", "Y_COORD": -23.52254, "X_COORD": 31.37972, "NOTES___CO": null, "Label": "Open", "Lable_Name": "Twanana", "Label_Type": "Borehole" }, "geometry": { "type": "Point", "coordinates": [ 31.37972, -23.52254 ] } },
{ "type": "Feature", "properties": { "NAME": "Voetpad", "TYPE": "Borehole  NW-106", "RANGER_SEC": "SHI", "HOLE_DRILL": "c1972", "BOREHOLE_D": "17/3", "BOREHOLE_1": "11991", "STRUCTURES": "WRT", "PURPOSE": "D", "STATUS___S": "O-RO", "REHABILITA": "N/A", "LOCALITY": "27 km NE Mooiplaas", "Y_COORD": -23.301, "X_COORD": 31.52492, "NOTES___CO": "Structure removed. Limpopo NP rangers requested to use it for domestic purposes.", "Label": "Open", "Lable_Name": "Voetpad", "Label_Type": "Borehole" }, "geometry": { "type": "Point", "coordinates": [ 31.52492, -23.301 ] } },
{ "type": "Feature", "properties": { "NAME": "Voortrekker ('Mitomeni')", "TYPE": "Borehole", "RANGER_SEC": "STO", "HOLE_DRILL": "c1973", "BOREHOLE_D": "30/6", "BOREHOLE_1": "3891", "STRUCTURES": "WRT", "PURPOSE": "W", "STATUS___S": "O-RO", "REHABILITA": "N/A", "LOCALITY": "11 km NE Stolsnek", "Y_COORD": -25.25387, "X_COORD": 31.46476, "NOTES___CO": "Incorrectly referred to as 'Mitomeni'.", "Label": "Open", "Lable_Name": "Voortrekker ('Mitomeni')", "Label_Type": "Borehole" }, "geometry": { "type": "Point", "coordinates": [ 31.46476, -25.25387 ] } },
{ "type": "Feature", "properties": { "NAME": "Welverdiend", "TYPE": "Borehole", "RANGER_SEC": "SAT", "HOLE_DRILL": "c1975", "BOREHOLE_D": "40/12", "BOREHOLE_1": "18925", "STRUCTURES": "SRT", "PURPOSE": "W", "STATUS___S": "DRT", "REHABILITA": "N/A", "LOCALITY": "14 km SW Satara", "Y_COORD": -24.50473, "X_COORD": 31.70319, "NOTES___CO": null, "Label": "Drought", "Lable_Name": "Welverdiend", "Label_Type": "Borehole" }, "geometry": { "type": "Point", "coordinates": [ 31.70319, -24.50473 ] } },
{ "type": "Feature", "properties": { "NAME": "Wenela", "TYPE": "Dam, concrete weir", "RANGER_SEC": "NWA", "HOLE_DRILL": "1952", "BOREHOLE_D": "-", "BOREHOLE_1": "-", "STRUCTURES": "Wl", "PURPOSE": "W", "STATUS___S": "O-RO", "REHABILITA": "N/A", "LOCALITY": "0,5 km N N'wanetsi", "Y_COORD": -24.44577, "X_COORD": 31.97685, "NOTES___CO": null, "Label": "Open", "Lable_Name": "Wenela dam", "Label_Type": "Dam, concrete weir" }, "geometry": { "type": "Point", "coordinates": [ 31.97685, -24.44577 ] } },
{ "type": "Feature", "properties": { "NAME": "Nhlanganini ('Winkelhaak')", "TYPE": "Dam, concrete", "RANGER_SEC": "LET", "HOLE_DRILL": "c1976", "BOREHOLE_D": "-", "BOREHOLE_1": "-", "STRUCTURES": "Wl", "PURPOSE": "W", "STATUS___S": "O-RO", "REHABILITA": "N/A", "LOCALITY": "12,5 km SW Letaba", "Y_COORD": -23.93523, "X_COORD": 31.49454, "NOTES___CO": "Correct name is 'Nhlanganini'.", "Label": "Open", "Lable_Name": "Nhlanganini dam ('Winkelhaak')", "Label_Type": "Dam, concrete" }, "geometry": { "type": "Point", "coordinates": [ 31.49454, -23.93523 ] } },
{ "type": "Feature", "properties": { "NAME": "Witpens", "TYPE": "Pipeline trough", "RANGER_SEC": "SAT", "HOLE_DRILL": "c1971", "BOREHOLE_D": "-", "BOREHOLE_1": "-", "STRUCTURES": "-", "PURPOSE": "W", "STATUS___S": "O-RO", "REHABILITA": "N/A", "LOCALITY": "7,5 km NNW Satara", "Y_COORD": -24.32793, "X_COORD": 31.75098, "NOTES___CO": null, "Label": "Open", "Lable_Name": "Witpens trough", "Label_Type": "Pipeline trough" }, "geometry": { "type": "Point", "coordinates": [ 31.75098, -24.32793 ] } }
]
}
