{
"type": "FeatureCollection",
"name": "clipped_artificial_water_provision_boreholes_jan09_shapefile_proj",
"crs": { "type": "name", "properties": { "name": "urn:ogc:def:crs:OGC:1.3:CRS84" } },
"features": [
{ "type": "Feature", "properties": { "WATERHOLE_": "Bangu", "SECTION": "Houtboschrand", "LONGITUDE": 31.82119, "LATITUDE": -24.10857, "COMMENT": "As provided by ranger", "N6": null }, "geometry": { "type": "Point", "coordinates": [ 31.82119, -24.108569999999521 ] } },
{ "type": "Feature", "properties": { "WATERHOLE_": "Goedgegun", "SECTION": "Houtboschrand", "LONGITUDE": 31.67133, "LATITUDE": -24.10912, "COMMENT": "Changed from minute format to decimal degree format", "N6": null }, "geometry": { "type": "Point", "coordinates": [ 31.67133, -24.109119999999521 ] } },
{ "type": "Feature", "properties": { "WATERHOLE_": "Roodeval", "SECTION": "Houtboschrand", "LONGITUDE": 31.63512, "LATITUDE": -24.14143, "COMMENT": "Changed from minute format to decimal degree format", "N6": null }, "geometry": { "type": "Point", "coordinates": [ 31.63512, -24.14142999999952 ] } },
{ "type": "Feature", "properties": { "WATERHOLE_": "Ngotso North", "SECTION": "Houtboschrand", "LONGITUDE": 31.70572, "LATITUDE": -24.12873, "COMMENT": "Changed from minute format to decimal degree format", "N6": null }, "geometry": { "type": "Point", "coordinates": [ 31.70572, -24.128729999999525 ] } },
{ "type": "Feature", "properties": { "WATERHOLE_": "Nyamari", "SECTION": "Houtboschrand", "LONGITUDE": 31.71957, "LATITUDE": -24.16782, "COMMENT": "Changed from minute format to decimal degree format", "N6": null }, "geometry": { "type": "Point", "coordinates": [ 31.71957, -24.167819999999523 ] } },
{ "type": "Feature", "properties": { "WATERHOLE_": "Maloponyane", "SECTION": "Letaba", "LONGITUDE": 31.54347, "LATITUDE": -23.70918, "COMMENT": "Changed from minute format to decimal degree format", "N6": null }, "geometry": { "type": "Point", "coordinates": [ 31.54347, -23.709179999999527 ] } },
{ "type": "Feature", "properties": { "WATERHOLE_": "Tsale", "SECTION": "Mahlangeni", "LONGITUDE": 31.3634, "LATITUDE": -23.65885, "COMMENT": "As provided by ranger", "N6": null }, "geometry": { "type": "Point", "coordinates": [ 31.363399999999864, -23.658849999999532 ] } },
{ "type": "Feature", "properties": { "WATERHOLE_": "Nshawu No.1", "SECTION": "Mooiplaas", "LONGITUDE": 31.47032, "LATITUDE": -23.60665, "COMMENT": "As provided by ranger", "N6": null }, "geometry": { "type": "Point", "coordinates": [ 31.47032, -23.606649999999526 ] } },
{ "type": "Feature", "properties": { "WATERHOLE_": "Nshawu No.3", "SECTION": "Mooiplaas", "LONGITUDE": 31.48714, "LATITUDE": -23.52805, "COMMENT": "As provided by ranger", "N6": null }, "geometry": { "type": "Point", "coordinates": [ 31.48714, -23.528049999999535 ] } },
{ "type": "Feature", "properties": { "WATERHOLE_": "Frazersrus", "SECTION": "Mooiplaas", "LONGITUDE": 31.31323, "LATITUDE": -23.48296, "COMMENT": "As provided by ranger", "N6": null }, "geometry": { "type": "Point", "coordinates": [ 31.313229999999844, -23.48295999999953 ] } },
{ "type": "Feature", "properties": { "WATERHOLE_": "Welgelegen", "SECTION": "Mooiplaas", "LONGITUDE": 31.28045, "LATITUDE": -23.44094, "COMMENT": "As provided by ranger", "N6": null }, "geometry": { "type": "Point", "coordinates": [ 31.280449999999814, -23.440939999999529 ] } },
{ "type": "Feature", "properties": { "WATERHOLE_": "Middelvlei ? N", "SECTION": "Mooiplaas", "LONGITUDE": 31.54345, "LATITUDE": -23.67612, "COMMENT": "As provided by ranger", "N6": null }, "geometry": { "type": "Point", "coordinates": [ 31.54345, -23.676119999999532 ] } },
{ "type": "Feature", "properties": { "WATERHOLE_": "Middelvlei ? S", "SECTION": "Mooiplaas", "LONGITUDE": 31.54331, "LATITUDE": -23.67672, "COMMENT": "As provided by ranger", "N6": null }, "geometry": { "type": "Point", "coordinates": [ 31.54331, -23.676719999999541 ] } },
{ "type": "Feature", "properties": { "WATERHOLE_": "Mooiplaas", "SECTION": "Mooiplaas", "LONGITUDE": 31.44369, "LATITUDE": -23.54001, "COMMENT": "As provided by ranger", "N6": null }, "geometry": { "type": "Point", "coordinates": [ 31.44369, -23.540009999999533 ] } },
{ "type": "Feature", "properties": { "WATERHOLE_": "Tihongonyeni", "SECTION": "Mooiplaas", "LONGITUDE": 31.43442, "LATITUDE": -23.43692, "COMMENT": "As provided by ranger", "N6": null }, "geometry": { "type": "Point", "coordinates": [ 31.43442, -23.436919999999539 ] } },
{ "type": "Feature", "properties": { "WATERHOLE_": "Klein Nshawu (Nshawane)", "SECTION": "Mooiplaas", "LONGITUDE": 31.48739, "LATITUDE": -23.64017, "COMMENT": "As provided by ranger", "N6": null }, "geometry": { "type": "Point", "coordinates": [ 31.48739, -23.640169999999539 ] } },
{ "type": "Feature", "properties": { "WATERHOLE_": "Bowkerskop ? N", "SECTION": "Mooiplaas", "LONGITUDE": 31.40118, "LATITUDE": -23.49709, "COMMENT": "As provided by ranger", "N6": null }, "geometry": { "type": "Point", "coordinates": [ 31.401179999999894, -23.497089999999535 ] } },
{ "type": "Feature", "properties": { "WATERHOLE_": "Bowkerskop - S", "SECTION": "Mooiplaas", "LONGITUDE": 31.40115, "LATITUDE": -23.49739, "COMMENT": "As provided by ranger", "N6": null }, "geometry": { "type": "Point", "coordinates": [ 31.401149999999891, -23.497389999999534 ] } },
{ "type": "Feature", "properties": { "WATERHOLE_": "Grysbok", "SECTION": "Mooiplaas", "LONGITUDE": 31.34902, "LATITUDE": -23.4519, "COMMENT": "As provided by ranger", "N6": null }, "geometry": { "type": "Point", "coordinates": [ 31.349019999999868, -23.451899999999537 ] } },
{ "type": "Feature", "properties": { "WATERHOLE_": "Eendrag", "SECTION": "Mooiplaas", "LONGITUDE": 31.33168, "LATITUDE": -23.4042, "COMMENT": "As provided by ranger", "N6": null }, "geometry": { "type": "Point", "coordinates": [ 31.331679999999853, -23.404199999999534 ] } },
{ "type": "Feature", "properties": { "WATERHOLE_": "Jim", "SECTION": "Olifants", "LONGITUDE": 31.6204, "LATITUDE": -23.97857, "COMMENT": "Changed -21S to -23S", "N6": null }, "geometry": { "type": "Point", "coordinates": [ 31.6204, -23.978569999999529 ] } },
{ "type": "Feature", "properties": { "WATERHOLE_": "Klopperfontein No2", "SECTION": "Pafuri", "LONGITUDE": 31.16002, "LATITUDE": -22.63462, "COMMENT": "As provided - confirmed by e-mail follow-up", "N6": null }, "geometry": { "type": "Point", "coordinates": [ 31.160019999999729, -22.634619999999547 ] } },
{ "type": "Feature", "properties": { "WATERHOLE_": "Lalapalm", "SECTION": "Pafuri", "LONGITUDE": 31.18176, "LATITUDE": -22.35969, "COMMENT": "As provided - confirmed by e-mail follow-up", "N6": null }, "geometry": { "type": "Point", "coordinates": [ 31.181759999999773, -22.359689999999564 ] } },
{ "type": "Feature", "properties": { "WATERHOLE_": "Mashikiri No1", "SECTION": "Pafuri", "LONGITUDE": 31.18178, "LATITUDE": -22.58691, "COMMENT": "As provided - confirmed by e-mail follow-up", "N6": null }, "geometry": { "type": "Point", "coordinates": [ 31.181779999999762, -22.586909999999556 ] } },
{ "type": "Feature", "properties": { "WATERHOLE_": "Nkovakulu No2", "SECTION": "Pafuri", "LONGITUDE": 31.19203, "LATITUDE": -22.53036, "COMMENT": "As provided - confirmed by e-mail follow-up", "N6": null }, "geometry": { "type": "Point", "coordinates": [ 31.192029999999772, -22.530359999999554 ] } },
{ "type": "Feature", "properties": { "WATERHOLE_": "Paradys", "SECTION": "Pafuri", "LONGITUDE": 31.2102, "LATITUDE": -22.3783, "COMMENT": "As provided - confirmed by e-mail follow-up", "N6": null }, "geometry": { "type": "Point", "coordinates": [ 31.210199999999798, -22.378299999999562 ] } },
{ "type": "Feature", "properties": { "WATERHOLE_": "Ngwenyeni windmill", "SECTION": "Phalaborwa", "LONGITUDE": 31.23875, "LATITUDE": -23.85785, "COMMENT": "Changed from minute format to decimal degree format", "N6": null }, "geometry": { "type": "Point", "coordinates": [ 31.238749999999762, -23.857849999999527 ] } },
{ "type": "Feature", "properties": { "WATERHOLE_": "Nandzana windmill", "SECTION": "Phalaborwa", "LONGITUDE": 31.28942, "LATITUDE": -23.83262, "COMMENT": "Changed from minute format to decimal degree format", "N6": null }, "geometry": { "type": "Point", "coordinates": [ 31.289419999999819, -23.832619999999526 ] } },
{ "type": "Feature", "properties": { "WATERHOLE_": "Shivulani windmill", "SECTION": "Phalaborwa", "LONGITUDE": 31.31578, "LATITUDE": -23.86822, "COMMENT": "Changed from minute format to decimal degree format", "N6": null }, "geometry": { "type": "Point", "coordinates": [ 31.315779999999833, -23.868219999999532 ] } },
{ "type": "Feature", "properties": { "WATERHOLE_": "Nwanetsi windmill", "SECTION": "Phalaborwa", "LONGITUDE": 31.41667, "LATITUDE": -23.88313, "COMMENT": "Changed from minute format to decimal degree format", "N6": null }, "geometry": { "type": "Point", "coordinates": [ 31.41666999999989, -23.883129999999532 ] } },
{ "type": "Feature", "properties": { "WATERHOLE_": "Erfplaas windmill", "SECTION": "Phalaborwa", "LONGITUDE": 31.30285, "LATITUDE": -23.9205, "COMMENT": "Changed from minute format to decimal degree format", "N6": null }, "geometry": { "type": "Point", "coordinates": [ 31.302849999999825, -23.920499999999521 ] } },
{ "type": "Feature", "properties": { "WATERHOLE_": "Masorini windmill", "SECTION": "Phalaborwa", "LONGITUDE": 31.27627, "LATITUDE": -23.93157, "COMMENT": "Changed from minute format to decimal degree format", "N6": null }, "geometry": { "type": "Point", "coordinates": [ 31.276269999999801, -23.931569999999521 ] } },
{ "type": "Feature", "properties": { "WATERHOLE_": "Magamba", "SECTION": "Punda Maria", "LONGITUDE": 31.19411, "LATITUDE": -22.76925, "COMMENT": "Changed from minute format to decimal degree format (and comma shift)", "N6": null }, "geometry": { "type": "Point", "coordinates": [ 31.194109999999764, -22.769249999999545 ] } },
{ "type": "Feature", "properties": { "WATERHOLE_": "Elandskuil", "SECTION": "Punda Maria", "LONGITUDE": 31.16288, "LATITUDE": -22.70463, "COMMENT": "Changed from minute format to decimal degree format", "N6": null }, "geometry": { "type": "Point", "coordinates": [ 31.162879999999735, -22.70462999999955 ] } },
{ "type": "Feature", "properties": { "WATERHOLE_": "Mandadzidzi", "SECTION": "Punda Maria", "LONGITUDE": 31.16116, "LATITUDE": -22.68927, "COMMENT": "Changed from minute format to decimal degree format", "N6": null }, "geometry": { "type": "Point", "coordinates": [ 31.161159999999736, -22.689269999999564 ] } },
{ "type": "Feature", "properties": { "WATERHOLE_": "Manangananga", "SECTION": "Punda Maria", "LONGITUDE": 31.08118, "LATITUDE": -22.81924, "COMMENT": "Changed from minute format to decimal degree format", "N6": null }, "geometry": { "type": "Point", "coordinates": [ 31.081179999999623, -22.819239999999546 ] } },
{ "type": "Feature", "properties": { "WATERHOLE_": "Deli", "SECTION": "Shangoni", "LONGITUDE": 31.12065, "LATITUDE": -23.03335, "COMMENT": "Changed from minute format to decimal degree format", "N6": null }, "geometry": { "type": "Point", "coordinates": [ 31.120649999999674, -23.03334999999953 ] } },
{ "type": "Feature", "properties": { "WATERHOLE_": "Nwaswitsakali", "SECTION": "Shangoni", "LONGITUDE": 31.06738, "LATITUDE": -23.01658, "COMMENT": "Changed from minute format to decimal degree format", "N6": null }, "geometry": { "type": "Point", "coordinates": [ 31.067379999999591, -23.016579999999536 ] } },
{ "type": "Feature", "properties": { "WATERHOLE_": "Hlanguthalala", "SECTION": "Shangoni", "LONGITUDE": 30.94415, "LATITUDE": -23.00013, "COMMENT": "Changed from minute format to decimal degree format", "N6": null }, "geometry": { "type": "Point", "coordinates": [ 30.944149999999372, -23.000129999999519 ] } },
{ "type": "Feature", "properties": { "WATERHOLE_": "Nghwendu", "SECTION": "Shangoni", "LONGITUDE": 31.02753, "LATITUDE": -22.87398, "COMMENT": "Changed from minute format to decimal degree format", "N6": null }, "geometry": { "type": "Point", "coordinates": [ 31.027529999999544, -22.873979999999523 ] } },
{ "type": "Feature", "properties": { "WATERHOLE_": "Phugwane", "SECTION": "Shangoni", "LONGITUDE": 31.0307, "LATITUDE": -22.99822, "COMMENT": "Minutes format - replaced 22 69.893S with 22 59.893S", "N6": null }, "geometry": { "type": "Point", "coordinates": [ 31.030699999999534, -22.998219999999531 ] } },
{ "type": "Feature", "properties": { "WATERHOLE_": "Nkuwankulu", "SECTION": "Shangoni", "LONGITUDE": 30.98412, "LATITUDE": -23.01755, "COMMENT": "Changed from minute format to decimal degree format", "N6": null }, "geometry": { "type": "Point", "coordinates": [ 30.984119999999447, -23.01754999999952 ] } },
{ "type": "Feature", "properties": { "WATERHOLE_": "Tessen", "SECTION": "Shangoni", "LONGITUDE": 31.05333, "LATITUDE": -23.11347, "COMMENT": "Changed from minute format to decimal degree format", "N6": null }, "geometry": { "type": "Point", "coordinates": [ 31.053329999999569, -23.113469999999531 ] } },
{ "type": "Feature", "properties": { "WATERHOLE_": "Nwafunyani", "SECTION": "Shangoni", "LONGITUDE": 31.0018, "LATITUDE": -23.10575, "COMMENT": "Changed from minute format to decimal degree format", "N6": null }, "geometry": { "type": "Point", "coordinates": [ 31.001799999999477, -23.105749999999524 ] } },
{ "type": "Feature", "properties": { "WATERHOLE_": "Lamond", "SECTION": "Shingwedzi", "LONGITUDE": 31.40483, "LATITUDE": -23.07127, "COMMENT": "Changed from minute format to decimal degree format", "N6": null }, "geometry": { "type": "Point", "coordinates": [ 31.40483, -23.071269999999554 ] } },
{ "type": "Feature", "properties": { "WATERHOLE_": "Joao", "SECTION": "Shingwedzi", "LONGITUDE": 31.36315, "LATITUDE": -23.14228, "COMMENT": "Changed from minute format to decimal degree format", "N6": null }, "geometry": { "type": "Point", "coordinates": [ 31.36314999999988, -23.142279999999545 ] } },
{ "type": "Feature", "properties": { "WATERHOLE_": "Mashagadzi", "SECTION": "Shingwedzi", "LONGITUDE": 31.42002, "LATITUDE": -23.14045, "COMMENT": "Changed from minute format to decimal degree format", "N6": null }, "geometry": { "type": "Point", "coordinates": [ 31.42002, -23.140449999999547 ] } },
{ "type": "Feature", "properties": { "WATERHOLE_": "Babalala No2", "SECTION": "Vlakteplaas", "LONGITUDE": 31.248, "LATITUDE": -22.90709, "COMMENT": "Vlakteplaas data not provided by current ranger (vacant) - data above based on previo", "N6": null }, "geometry": { "type": "Point", "coordinates": [ 31.247999999999806, -22.907089999999549 ] } },
{ "type": "Feature", "properties": { "WATERHOLE_": "Nwarihlangari South No2", "SECTION": "Vlakteplaas", "LONGITUDE": 31.3327, "LATITUDE": -22.9947, "COMMENT": "Vlakteplaas data not provided by current ranger (vacant) - data above based on previo", "N6": null }, "geometry": { "type": "Point", "coordinates": [ 31.332699999999868, -22.99469999999955 ] } },
{ "type": "Feature", "properties": { "WATERHOLE_": "Ponda", "SECTION": "Woodlands", "LONGITUDE": 31.22275, "LATITUDE": -23.14075, "COMMENT": "Changed from minute format to decimal degree format", "N6": null }, "geometry": { "type": "Point", "coordinates": [ 31.222749999999778, -23.140749999999542 ] } },
{ "type": "Feature", "properties": { "WATERHOLE_": "Machangana", "SECTION": "Woodlands", "LONGITUDE": 31.15887, "LATITUDE": -23.13912, "COMMENT": "Changed from minute format to decimal degree format", "N6": null }, "geometry": { "type": "Point", "coordinates": [ 31.158869999999705, -23.139119999999529 ] } },
{ "type": "Feature", "properties": { "WATERHOLE_": "Sandpiper", "SECTION": "Woodlands", "LONGITUDE": 31.31581, "LATITUDE": -23.02013, "COMMENT": "Minutes format - Longitude replaced by previous GIS layer due to being same as Machan", "N6": null }, "geometry": { "type": "Point", "coordinates": [ 31.315809999999857, -23.020129999999551 ] } },
{ "type": "Feature", "properties": { "WATERHOLE_": "Ximuwini", "SECTION": "Woodlands", "LONGITUDE": 31.0974, "LATITUDE": -23.23083, "COMMENT": "Changed from minute format to decimal degree format", "N6": null }, "geometry": { "type": "Point", "coordinates": [ 31.097399999999624, -23.230829999999536 ] } },
{ "type": "Feature", "properties": { "WATERHOLE_": "Dzombo West", "SECTION": "Woodlands", "LONGITUDE": 31.3866, "LATITUDE": -23.18177, "COMMENT": "Changed from minute format to decimal degree format", "N6": null }, "geometry": { "type": "Point", "coordinates": [ 31.386599999999895, -23.181769999999549 ] } },
{ "type": "Feature", "properties": { "WATERHOLE_": "N'wambu", "SECTION": "Woodlands", "LONGITUDE": 31.31902, "LATITUDE": -23.37035, "COMMENT": "Changed from minute format to decimal degree format", "N6": null }, "geometry": { "type": "Point", "coordinates": [ 31.319019999999846, -23.370349999999537 ] } },
{ "type": "Feature", "properties": { "WATERHOLE_": "Nkokodzi", "SECTION": "Woodlands", "LONGITUDE": 31.31718, "LATITUDE": -23.24328, "COMMENT": "Changed from minute format to decimal degree format", "N6": null }, "geometry": { "type": "Point", "coordinates": [ 31.317179999999848, -23.243279999999537 ] } },
{ "type": "Feature", "properties": { "WATERHOLE_": "Red Rocks", "SECTION": "Woodlands", "LONGITUDE": 31.29385, "LATITUDE": -23.18098, "COMMENT": "Changed from minute format to decimal degree format", "N6": null }, "geometry": { "type": "Point", "coordinates": [ 31.293849999999836, -23.18097999999954 ] } },
{ "type": "Feature", "properties": { "WATERHOLE_": "Boyela", "SECTION": "Vlakteplaas", "LONGITUDE": 31.2844, "LATITUDE": -22.94, "COMMENT": "Added after northern water workshop (coordinates from old GIS layer Boyela Nr3)", "N6": null }, "geometry": { "type": "Point", "coordinates": [ 31.284399999999835, -22.93999999999955 ] } },
{ "type": "Feature", "properties": { "WATERHOLE_": "Bateleur", "SECTION": "Woodlands", "LONGITUDE": 31.2003, "LATITUDE": -23.2341, "COMMENT": "Added after northern water workshop (coordinates from old GIS layer)", "N6": null }, "geometry": { "type": "Point", "coordinates": [ 31.200299999999746, -23.23409999999954 ] } },
{ "type": "Feature", "properties": { "WATERHOLE_": "Punda Maria Camp/Birdhi", "SECTION": "Punda Maria", "LONGITUDE": 31.01485, "LATITUDE": -22.69277, "COMMENT": "Added after northern water workshop (coordinates from old GIS layer Punda Maria Nr3)", "N6": null }, "geometry": { "type": "Point", "coordinates": [ 31.014849999999534, -22.692769999999541 ] } }
]
}
